{"bbox":[24.8133101,60.1776754,24.8402218,60.1919323],"type":"FeatureCollection","features":[{"type":"Feature","properties":{"@id":"way/4217650","addr:city":"Espoo","addr:country":"FI","addr:housenumber":"2","addr:street":"Konemiehentie","amenity":"university","building":"yes","building:levels":"2","int_name":"Aalto Computer Science","internet_access":"wlan","name":"Aalto Tietotekniikka","start_date":"1998"},"geometry":{"type":"Polygon","coordinates":[[[24.8212885,60.1871792],[24.8218626,60.1870873],[24.8219186,60.1870783],[24.8225411,60.1869791],[24.8224423,60.1869026],[24.8223976,60.1867789],[24.8221329,60.1867998],[24.8220836,60.1867524],[24.822336,60.186716],[24.8222782,60.1865828],[24.8217239,60.1867078],[24.8211387,60.1867604],[24.8210779,60.1867659],[24.8204964,60.1868181],[24.8204333,60.1868238],[24.8203009,60.1868357],[24.8203711,60.1869702],[24.8204691,60.1869622],[24.8206263,60.1873572],[24.8209968,60.1872991],[24.8209549,60.1872326],[24.821232,60.1871882],[24.8212885,60.1871792]]]}},
{"type":"Feature","properties":{"@id":"way/4252946","addr:city":"Espoo","addr:country":"FI","addr:housenumber":"1","addr:postcode":"02150","addr:street":"Otakaari","amenity":"university","architect":"Alvar Aalto","building":"yes","guard:operator":"Securitas","int_name":"Aalto Otaniemi Campus Main building","internet_access":"wlan","name":"Aalto Päärakennus","operator":"Aalto-yliopisto","start_date":"1963"},"geometry":{"type":"Polygon","coordinates":[[[24.8276401,60.185628],[24.8272157,60.185702],[24.8270371,60.1854061],[24.8270954,60.1853958],[24.8268987,60.1851012],[24.8267939,60.1850523],[24.8265978,60.1851468],[24.8268755,60.1855951],[24.8268364,60.1856022],[24.8271109,60.18602],[24.8273675,60.1860265],[24.8276115,60.1864114],[24.8278392,60.1863791],[24.8281051,60.186799],[24.828053,60.1868354],[24.8282729,60.1871859],[24.8284664,60.1874449],[24.8287203,60.1874626],[24.8288099,60.1875432],[24.829171,60.1874847],[24.8290617,60.1872394],[24.8290934,60.187201],[24.8294107,60.1871738],[24.8293767,60.1870467],[24.8294733,60.1870102],[24.8294107,60.1869331],[24.8290985,60.1869836],[24.8286214,60.1862776],[24.8289149,60.1862331],[24.8290845,60.1865011],[24.829352,60.1864597],[24.8291865,60.1861886],[24.8294727,60.1861446],[24.8295986,60.1863402],[24.829607,60.1864851],[24.8304812,60.1863335],[24.8302326,60.1859579],[24.8299839,60.1859962],[24.8300942,60.1861722],[24.8298028,60.1862203],[24.8295416,60.1858493],[24.8293095,60.1858845],[24.829425,60.1860687],[24.8291315,60.1861101],[24.8289494,60.1857644],[24.8284485,60.1858439],[24.8283481,60.1856768],[24.8279535,60.1857385],[24.8278787,60.1857719],[24.8276401,60.185628]]]}},
{"type":"Feature","properties":{"@id":"way/4252948","addr:housenumber":"9","addr:street":"Otaniementie","amenity":"university","building":"yes","int_name":"Aalto Main Library","internet_access":"wlan","name":"Aalto Otaniemen kampuskirjasto","source":"Bing"},"geometry":{"type":"Polygon","coordinates":[[[24.8275032,60.1850933],[24.8287069,60.1844626],[24.828577,60.1843878],[24.8284438,60.1844047],[24.8279877,60.1846355],[24.8278217,60.1845971],[24.8278777,60.1845352],[24.8277165,60.1844987],[24.8270752,60.1848202],[24.8272039,60.1848532],[24.8271103,60.1849288],[24.8275032,60.1850933]]]}},
{"type":"Feature","properties":{"@id":"way/4252953","addr:housenumber":"22","addr:postcode":"02150","addr:street":"Otakaari","alt_name":"Täffä","building":"yes","int_name":"Aalto TF","loc_name":"Täffä","name":"TF","name:sv":"Teknologföreningen","old_name":"Teknologföreningen"},"geometry":{"type":"Polygon","coordinates":[[[24.8328947,60.1860277],[24.8326148,60.1860664],[24.8332304,60.1861813],[24.8334756,60.1860668],[24.8330886,60.1860294],[24.8331077,60.1859804],[24.8333388,60.1859292],[24.8331242,60.185871],[24.8329387,60.1859589],[24.8328947,60.1860277]]]}},
{"type":"Feature","properties":{"@id":"way/4252954","addr:housenumber":"24","addr:postcode":"02150","addr:street":"Otakaari","architect":"Raili Paatelainen;Reima Pietilä","building":"yes","int_name":"Aalto Dipoli","internet_access":"wlan","name":"Aalto Dipoli","name:en":"Lifelong learning center Dipoli","source":"Bing","start_date":"08-1966..10-1966"},"geometry":{"type":"Polygon","coordinates":[[[24.8328869,60.1852761],[24.833243,60.1853905],[24.8332398,60.1852986],[24.8333352,60.1851945],[24.8332078,60.1851316],[24.8331776,60.1849302],[24.8330512,60.1849436],[24.8328732,60.1848961],[24.8326782,60.1847657],[24.8326449,60.1846819],[24.8325033,60.1847197],[24.8323247,60.1846853],[24.8323077,60.1848992],[24.831933,60.1849164],[24.8318573,60.1848373],[24.8317197,60.1848378],[24.8315222,60.1849467],[24.8316134,60.1850487],[24.8317699,60.1851186],[24.8319921,60.1853392],[24.8318004,60.1853824],[24.8318498,60.1855033],[24.8320595,60.1854717],[24.8320395,60.185572],[24.8328444,60.1854507],[24.8327505,60.1852967],[24.8328869,60.1852761]]]}},
{"type":"Feature","properties":{"@id":"way/4259019","addr:housenumber":"12","addr:postcode":"02150","addr:street":"Tekniikantie","building":"commercial","name":"Innopoli"},"geometry":{"type":"Polygon","coordinates":[[[24.8136795,60.1838691],[24.8138788,60.1838935],[24.8138251,60.1840162],[24.8133852,60.1839682],[24.8133101,60.1841495],[24.8135998,60.1841815],[24.813514,60.1844109],[24.813911,60.1842082],[24.8140934,60.1842402],[24.8143723,60.1841335],[24.814453,60.1839962],[24.8145866,60.1839909],[24.8146298,60.1840909],[24.8149302,60.1840802],[24.8149409,60.1838988],[24.8147163,60.1838531],[24.81478,60.1837014],[24.8150697,60.1837174],[24.8151555,60.1835521],[24.8148015,60.1835147],[24.8148697,60.1833966],[24.8155073,60.1834713],[24.8155632,60.1833253],[24.814544,60.1832053],[24.8144675,60.1833498],[24.8146581,60.1833726],[24.8145999,60.1834953],[24.8141577,60.1834454],[24.8140719,60.1836001],[24.8142543,60.1836214],[24.8142006,60.1837609],[24.81375,60.1837068],[24.8136795,60.1838691]]]}},
{"type":"Feature","properties":{"@id":"way/4259025","addr:housenumber":"1","addr:street":"Tietotie","amenity":"university","building":"yes","int_name":"Aalto Marine Technology","name":"Aalto Meritekniikka"},"geometry":{"type":"Polygon","coordinates":[[[24.8174529,60.1861414],[24.81753,60.186352],[24.8182488,60.186288],[24.8182917,60.1864],[24.821406,60.1861417],[24.8212189,60.1856652],[24.8204735,60.1857303],[24.8204268,60.1857599],[24.8204897,60.1859135],[24.8181996,60.186105],[24.8181943,60.1860793],[24.8174529,60.1861414]]]}},
{"type":"Feature","properties":{"@id":"way/4259026","amenity":"university","building":"yes","int_name":"Aalto Water Laboratory","name":"Aalto Vesilaboratorio"},"geometry":{"type":"Polygon","coordinates":[[[24.8189814,60.185769],[24.8203795,60.1856541],[24.8205263,60.185625],[24.8205263,60.1855183],[24.8203439,60.185497],[24.818927,60.1856066],[24.8189814,60.185769]]]}},
{"type":"Feature","properties":{"@id":"way/4259181","addr:housenumber":"6","addr:street":"Servinkuja","building":"apartments","operator":"HOAS","vuokra-asuntoja":"yes"},"geometry":{"type":"Polygon","coordinates":[[[24.8325945,60.1909039],[24.8327929,60.1909332],[24.8330826,60.1904532],[24.8328734,60.1904238],[24.8325945,60.1909039]]]}},
{"type":"Feature","properties":{"@id":"way/4259182","addr:housenumber":"2","addr:street":"Servinkuja","building":"apartments","vuokra-asuntoja":"yes"},"geometry":{"type":"Polygon","coordinates":[[[24.8340701,60.190018],[24.8338513,60.1899841],[24.8335763,60.190422],[24.833795,60.1904559],[24.8340701,60.190018]]]}},
{"type":"Feature","properties":{"@id":"way/4259183","addr:housenumber":"2","addr:street":"Servinkuja","building":"apartments","vuokra-asuntoja":"yes"},"geometry":{"type":"Polygon","coordinates":[[[24.8346546,60.1897888],[24.8348777,60.1894323],[24.8346372,60.1893952],[24.8344142,60.1897517],[24.8346546,60.1897888]]]}},
{"type":"Feature","properties":{"@id":"way/4259184","addr:housenumber":"6","addr:street":"Servin Maijan tie","building":"apartments","vuokra-asuntoja":"yes"},"geometry":{"type":"Polygon","coordinates":[[[24.8362212,60.190631],[24.8363602,60.1906312],[24.8363633,60.1902226],[24.8360697,60.1901968],[24.8360663,60.1906292],[24.8359468,60.190629],[24.8359438,60.1909918],[24.8362185,60.190952],[24.8362212,60.190631]]]}},
{"type":"Feature","properties":{"@id":"way/4259185","addr:housenumber":"1","addr:street":"Servinkuja","building":"apartments","vuokra-asuntoja":"yes"},"geometry":{"type":"Polygon","coordinates":[[[24.8349582,60.19066],[24.8352129,60.1906769],[24.83528,60.1904263],[24.8354092,60.1904348],[24.8355441,60.1899307],[24.8352793,60.1899131],[24.8351497,60.1903972],[24.8350307,60.1903894],[24.8349582,60.19066]]]}},
{"type":"Feature","properties":{"@id":"way/4259186","addr:housenumber":"3","addr:street":"Servinkuja","building":"apartments","vuokra-asuntoja":"yes"},"geometry":{"type":"Polygon","coordinates":[[[24.8353508,60.1908943],[24.8351435,60.1909228],[24.8350989,60.1910822],[24.835277,60.191138],[24.8354916,60.1911528],[24.8355822,60.1910762],[24.8355598,60.1909088],[24.8353508,60.1908943]]]}},
{"type":"Feature","properties":{"@id":"way/4259187","addr:housenumber":"3","addr:street":"Servin Maijan tie","building":"apartments","vuokra-asuntoja":"yes"},"geometry":{"type":"Polygon","coordinates":[[[24.8356353,60.1892628],[24.8354408,60.1893422],[24.8358059,60.1895635],[24.8358449,60.1895476],[24.8362135,60.1897711],[24.8363991,60.1896954],[24.836018,60.1894643],[24.8359879,60.1894766],[24.8356353,60.1892628]]]}},
{"type":"Feature","properties":{"@id":"way/4259263","addr:housenumber":"1","addr:street":"Servin Maijan tie","building":"apartments","vuokra-asuntoja":"yes"},"geometry":{"type":"Polygon","coordinates":[[[24.835016,60.1887124],[24.8352534,60.1891772],[24.8354819,60.1891484],[24.8352446,60.1886835],[24.835016,60.1887124]]]}},
{"type":"Feature","properties":{"@id":"way/4259264","addr:housenumber":"18","addr:street":"Otakaari","building":"residential"},"geometry":{"type":"Polygon","coordinates":[[[24.8352033,60.188225],[24.835114,60.188256],[24.8350773,60.1885128],[24.8354041,60.1885243],[24.8354451,60.1882378],[24.8355473,60.1882454],[24.8356283,60.1879783],[24.8352839,60.187959],[24.8352033,60.188225]]]}},
{"type":"Feature","properties":{"@id":"way/4259265","addr:housenumber":"4","addr:street":"Jämeräntaival","building":"yes","loc_name":"Smökki","name":"Servin mökki","source":"Bing","start_date":"1952"},"geometry":{"type":"Polygon","coordinates":[[[24.8366151,60.1883316],[24.8366396,60.1881914],[24.8365279,60.1881866],[24.8365144,60.1882635],[24.8362718,60.188253],[24.8362191,60.1885554],[24.8364975,60.1886056],[24.8364828,60.1886898],[24.8366617,60.1886976],[24.836697,60.1884954],[24.8366151,60.1883316]]]}},
{"type":"Feature","properties":{"@id":"way/4259289","addr:housenumber":"2","addr:postcode":"02150","addr:street":"Otaranta","building":"yes","layer":"1"},"geometry":{"type":"Polygon","coordinates":[[[24.8364102,60.1842473],[24.8364195,60.1841273],[24.8365471,60.1841273],[24.8365594,60.1839121],[24.8373759,60.1839189],[24.8373842,60.1837734],[24.8365471,60.1837619],[24.8365568,60.1835499],[24.8371011,60.1832771],[24.8369147,60.1831685],[24.8362481,60.1834885],[24.8362118,60.1842444],[24.8364102,60.1842473]]]}},
{"type":"Feature","properties":{"@id":"way/4259304","access":"private","amenity":"parking","building":"garages","created_by":"Potlatch 0.10b"},"geometry":{"type":"Polygon","coordinates":[[[24.8354328,60.183588],[24.835535,60.1835895],[24.8355551,60.183235],[24.8354529,60.1832336],[24.8354328,60.183588]]]}},
{"type":"Feature","properties":{"@id":"way/4259305","access":"private","amenity":"parking","building":"garages","created_by":"Potlatch 0.10b"},"geometry":{"type":"Polygon","coordinates":[[[24.8357065,60.1835894],[24.8358081,60.1835911],[24.8358327,60.1832385],[24.8357311,60.1832367],[24.8357065,60.1835894]]]}},
{"type":"Feature","properties":{"@id":"way/4259306","access":"private","amenity":"parking","building":"garages","created_by":"Potlatch 0.10b"},"geometry":{"type":"Polygon","coordinates":[[[24.8354781,60.1827908],[24.8354581,60.1831437],[24.8355603,60.1831451],[24.8355803,60.1827923],[24.8354781,60.1827908]]]}},
{"type":"Feature","properties":{"@id":"way/4259307","access":"private","amenity":"parking","building":"garages","created_by":"Potlatch 0.10b"},"geometry":{"type":"Polygon","coordinates":[[[24.8357375,60.1831456],[24.8358391,60.1831473],[24.8358638,60.1827943],[24.8357622,60.1827925],[24.8357375,60.1831456]]]}},
{"type":"Feature","properties":{"@id":"way/4266572","addr:city":"Espoo","addr:country":"FI","addr:housenumber":"8","addr:postcode":"02150","addr:street":"Jämeräntaival","amenity":"place_of_worship","building":"yes","int_name":"Otaniemi Chapel","name":"Otaniemen kappeli","postal_code":"02150","religion":"christian","source":"Bing","start_date":"1956"},"geometry":{"type":"Polygon","coordinates":[[[24.8373839,60.1894523],[24.8373281,60.1892449],[24.83705,60.1892867],[24.8371691,60.1894878],[24.8373839,60.1894523]]]}},
{"type":"Feature","properties":{"@id":"way/4266885","addr:housenumber":"10","addr:street":"Servin Maijan tie","building":"residential"},"geometry":{"type":"Polygon","coordinates":[[[24.8368554,60.1915545],[24.8367287,60.1915565],[24.8367072,60.1912194],[24.8368331,60.1912174],[24.8368231,60.1910601],[24.8365029,60.191092],[24.8365108,60.191216],[24.8363847,60.191218],[24.8364073,60.1915724],[24.8365309,60.1915705],[24.8365458,60.1918042],[24.8366392,60.1918027],[24.8366463,60.1919135],[24.8369693,60.1919323],[24.8369599,60.1917841],[24.8368701,60.1917855],[24.8368554,60.1915545]]]}},
{"type":"Feature","properties":{"@id":"way/4266886","addr:housenumber":"12","addr:street":"Servin Maijan tie","building":"residential"},"geometry":{"type":"Polygon","coordinates":[[[24.8376452,60.1916495],[24.8377482,60.1916477],[24.8377304,60.1914013],[24.8374136,60.1913788],[24.8374328,60.1916447],[24.837298,60.1916471],[24.837317,60.1919096],[24.8376617,60.1918772],[24.8376452,60.1916495]]]}},
{"type":"Feature","properties":{"@id":"way/4266887","addr:housenumber":"12","addr:street":"Servin Maijan tie","building":"residential"},"geometry":{"type":"Polygon","coordinates":[[[24.8373747,60.1905322],[24.8374101,60.1909114],[24.8372997,60.190914],[24.8373345,60.1912864],[24.8376673,60.1912544],[24.8376341,60.1908989],[24.83774,60.1908965],[24.8377081,60.1905553],[24.8376493,60.1905258],[24.8373747,60.1905322]]]}},
{"type":"Feature","properties":{"@id":"way/4266888","addr:housenumber":"5","addr:street":"Servinkuja","building":"apartments","vuokra-asuntoja":"yes"},"geometry":{"type":"Polygon","coordinates":[[[24.8341471,60.190998],[24.8342432,60.1907645],[24.8338722,60.1907268],[24.8337761,60.1909603],[24.8341471,60.190998]]]}},
{"type":"Feature","properties":{"@id":"way/4266889","addr:housenumber":"8","addr:street":"Servin Maijan tie","building":"residential"},"geometry":{"type":"Polygon","coordinates":[[[24.8366441,60.1904805],[24.8366436,60.190607],[24.8368609,60.1906073],[24.8368607,60.1906721],[24.8365847,60.1906718],[24.8365843,60.1907837],[24.8370453,60.1907842],[24.8370464,60.1904808],[24.8366441,60.1904805]]]}},
{"type":"Feature","properties":{"@id":"way/4266890","addr:housenumber":"12","addr:street":"Otakaari","amenity":"hospital","building":"yes","created_by":"Potlatch 0.10e","name":"YTHS"},"geometry":{"type":"Polygon","coordinates":[[[24.8320567,60.1909285],[24.8318104,60.1909214],[24.8318303,60.1907509],[24.8316827,60.1907467],[24.831648,60.1910453],[24.8318085,60.1910499],[24.8318171,60.1909754],[24.8324851,60.1909946],[24.8324652,60.190815],[24.8320366,60.1908027],[24.8320567,60.1909285]]]}},
{"type":"Feature","properties":{"@id":"way/4424188","addr:city":"Espoo","addr:country":"FI","addr:housenumber":"4","addr:street":"Konemiehentie","amenity":"university","building":"yes","int_name":"Aalto Campus and Facility Services","name":"Aalto TTA"},"geometry":{"type":"Polygon","coordinates":[[[24.8225849,60.1876685],[24.8224975,60.1875343],[24.82264,60.1875114],[24.8224842,60.1872719],[24.8224057,60.1872322],[24.8221823,60.187268],[24.8223076,60.1875059],[24.8221434,60.1875323],[24.8221787,60.1875867],[24.8223429,60.1875603],[24.8224563,60.1876892],[24.8225849,60.1876685]]]}},
{"type":"Feature","properties":{"@id":"way/7244238","amenity":"university","building":"yes","building:levels":"1","building:roof":"pitched","building:roof:orientation":"along","name":"Aalto SAHA"},"geometry":{"type":"Polygon","coordinates":[[[24.8234895,60.1875521],[24.8237151,60.1875184],[24.8234856,60.1871382],[24.82326,60.1871719],[24.8234895,60.1875521]]]}},
{"type":"Feature","properties":{"@id":"way/7578961","amenity":"university","building":"yes","int_name":"Aalto Engineering Physics","internet_access":"wlan","name":"Aalto Teknillinen fysiikka"},"geometry":{"type":"Polygon","coordinates":[[[24.8310604,60.1877533],[24.8311448,60.1876783],[24.8308111,60.1875855],[24.8307254,60.1876616],[24.8305562,60.1876145],[24.8306634,60.1875193],[24.8303948,60.1874446],[24.8295877,60.1881615],[24.8294483,60.1882619],[24.8303531,60.1884911],[24.8304062,60.1884439],[24.8305453,60.1884826],[24.8307056,60.1883403],[24.8305665,60.1883016],[24.8309695,60.1879436],[24.8311243,60.1877711],[24.8310604,60.1877533]]]}},
{"type":"Feature","properties":{"@id":"way/7579330","addr:city":"Espoo","addr:country":"FI","addr:housenumber":"4","addr:postcode":"02150","addr:street":"Rakentajanaukio","amenity":"university","building":"yes","int_name":"Civil and Environmental Engineering","internet_access":"wlan","name":"Aalto Rakennus- ja ympäristötekniikka","source":"Bing"},"geometry":{"type":"Polygon","coordinates":[[[24.8313019,60.1868498],[24.8311441,60.1868065],[24.831203,60.1867082],[24.8310058,60.1866541],[24.8303639,60.1872325],[24.8305014,60.1873158],[24.8314191,60.1875676],[24.8316076,60.1873978],[24.832018,60.1875104],[24.8321475,60.1873938],[24.8316898,60.1872682],[24.8318019,60.1871672],[24.8315214,60.1870902],[24.831235,60.1873482],[24.8307579,60.1872173],[24.8310268,60.186975],[24.8311421,60.1870067],[24.831052,60.1870864],[24.8312634,60.187125],[24.8313076,60.1870305],[24.8315137,60.1869547],[24.8313019,60.1868498]]]}},
{"type":"Feature","properties":{"@id":"way/7584026","amenity":"university","building":"yes","int_name":"Aalto Mechanical Engineering 4","name":"Aalto Konetekniikka 4","source":"Bing"},"geometry":{"type":"Polygon","coordinates":[[[24.8262772,60.1884363],[24.8257708,60.188595],[24.8257257,60.1885594],[24.8254089,60.188686],[24.8254383,60.1887092],[24.8249577,60.1888597],[24.8254121,60.1892181],[24.8257961,60.1890977],[24.8255825,60.1889292],[24.8257644,60.188911],[24.8260422,60.188824],[24.8261248,60.1888892],[24.8262649,60.1888453],[24.826143,60.1887492],[24.8263443,60.1886861],[24.8264689,60.1887843],[24.8269145,60.1886446],[24.8268387,60.1885386],[24.8265298,60.1886355],[24.8262772,60.1884363]]]}},
{"type":"Feature","properties":{"@id":"way/7584131","addr:city":"Espoo","addr:housename":"Aalto-yliopisto Maarintalo","addr:housenumber":"3","addr:postcode":"02150","addr:street":"Sähkömiehentie","amenity":"university","building":"school","int_name":"Aalto Maari Building","internet_access":"wlan","name":"Aalto-yliopisto Maarintalo","source":"Bing"},"geometry":{"type":"Polygon","coordinates":[[[24.8257549,60.189548],[24.8269758,60.189157],[24.8267654,60.1889947],[24.8260954,60.1892229],[24.8260489,60.1891869],[24.8255086,60.189358],[24.8257549,60.189548]]]}},
{"type":"Feature","properties":{"@id":"way/7584425","addr:housenumber":"8","amenity":"university","building":"yes","internet_access":"wlan","name":"Aalto KMP","source":"Bing"},"geometry":{"type":"Polygon","coordinates":[[[24.828708,60.1883567],[24.8285251,60.1884145],[24.8288128,60.1886395],[24.8279165,60.1889266],[24.8276318,60.188704],[24.8274366,60.1887657],[24.8278589,60.189096],[24.8287704,60.1888079],[24.8287345,60.1887798],[24.829013,60.1886918],[24.8290512,60.188625],[24.828708,60.1883567]]]}},
{"type":"Feature","properties":{"@id":"way/7585092","addr:housenumber":"3","addr:postcode":"02150","addr:street":"Tietotie","building":"commercial","name":"Aalto Micronova"},"geometry":{"type":"Polygon","coordinates":[[[24.8171733,60.1851646],[24.8173128,60.1848448],[24.8182891,60.184947],[24.8184093,60.1846653],[24.8160218,60.184412],[24.8160012,60.1844531],[24.8157786,60.1844329],[24.815737,60.1845177],[24.8159398,60.1845372],[24.815843,60.1847678],[24.8166755,60.1848531],[24.8165811,60.1851049],[24.8171733,60.1851646]]]}},
{"type":"Feature","properties":{"@id":"way/7585320","addr:housenumber":"2","addr:postcode":"02150","addr:street":"Tietotie","amenity":"university","building":"yes","internet_access":"wlan"},"geometry":{"type":"Polygon","coordinates":[[[24.8237453,60.1845529],[24.8233926,60.184811],[24.8236729,60.1849057],[24.8232461,60.1852181],[24.8233238,60.1852444],[24.8230211,60.185466],[24.8229422,60.1854393],[24.8226757,60.1856343],[24.8225938,60.1856067],[24.8224616,60.1857035],[24.8222678,60.1856381],[24.8224377,60.1855137],[24.8223842,60.1854957],[24.8228138,60.1851784],[24.8224796,60.1850655],[24.8220462,60.1853828],[24.8217018,60.1852587],[24.8214516,60.1854419],[24.8223733,60.1857532],[24.822547,60.1858226],[24.8226798,60.1857248],[24.8228012,60.1857662],[24.8229736,60.1856944],[24.8240815,60.1849025],[24.824107,60.1848376],[24.8237453,60.1845529]]]}},
{"type":"Feature","properties":{"@id":"way/7585522","FIXME":"Vain VTT?","addr:housenumber":"5","addr:postcode":"02150","addr:street":"Biologinkuja","amenity":"university","building":"yes"},"geometry":{"type":"Polygon","coordinates":[[[24.8213568,60.1849817],[24.8216442,60.1850906],[24.822799,60.1843236],[24.8228559,60.1843449],[24.8232031,60.184117],[24.8228573,60.1839882],[24.8227354,60.1840707],[24.8226042,60.1840185],[24.8224144,60.1841425],[24.8225823,60.1842086],[24.8221234,60.1845207],[24.8220729,60.1845024],[24.8213568,60.1849817]]]}},
{"type":"Feature","properties":{"@id":"way/7585773","addr:housenumber":"4","addr:postcode":"02150","addr:street":"Tietotie","amenity":"university","building":"yes"},"geometry":{"type":"Polygon","coordinates":[[[24.8214902,60.1842921],[24.8211301,60.1841362],[24.8208469,60.1843154],[24.8212932,60.1844904],[24.8208653,60.1847883],[24.8204497,60.1846393],[24.820112,60.1848524],[24.8210876,60.1852514],[24.8213373,60.1850876],[24.8211668,60.1850208],[24.8212224,60.1849844],[24.8210674,60.1849284],[24.8222459,60.1841404],[24.8220034,60.184037],[24.8215421,60.1843154],[24.8214902,60.1842921]]]}},
{"type":"Feature","properties":{"@id":"way/7587206","amenity":"university","building":"yes"},"geometry":{"type":"Polygon","coordinates":[[[24.8224061,60.185084],[24.8236092,60.1842661],[24.8234235,60.1841988],[24.8225194,60.1847956],[24.8224547,60.1847718],[24.822146,60.1849894],[24.8224061,60.185084]]]}},
{"type":"Feature","properties":{"@id":"way/7588058","addr:housenumber":"1","addr:postcode":"02150","addr:street":"Kemistintie","amenity":"university","building":"school","int_name":"Aalto Chemical Technology","internet_access":"wlan","name":"Aalto Kemian tekniikka"},"geometry":{"type":"Polygon","coordinates":[[[24.822966,60.1831764],[24.8234915,60.1833756],[24.8233971,60.1834525],[24.8238005,60.1835976],[24.8237061,60.1836787],[24.8243069,60.1838792],[24.8245215,60.1837384],[24.8251309,60.1839518],[24.8252167,60.1838792],[24.8258862,60.184131],[24.826281,60.1838664],[24.8259844,60.1837599],[24.8258183,60.1838719],[24.8254484,60.1837384],[24.8257088,60.1835582],[24.8254916,60.1834839],[24.8250918,60.1837163],[24.8246709,60.183542],[24.8249849,60.18335],[24.824731,60.1832508],[24.8243069,60.1835122],[24.8238691,60.1833543],[24.8243326,60.1830684],[24.8239893,60.1829318],[24.823631,60.1831621],[24.8232254,60.1830001],[24.822966,60.1831764]]]}},
{"type":"Feature","properties":{"@id":"way/7588374","addr:housenumber":"2","addr:postcode":"02150","addr:street":"Vuorimiehentie","amenity":"university","building":"yes","int_name":"Aalto Materials Science and Technology","name":"Aalto Materiaalitekniikka","name:sv":"Aalto Materialteknik"},"geometry":{"type":"Polygon","coordinates":[[[24.8238246,60.1822815],[24.8235876,60.1824078],[24.8256214,60.1834309],[24.8258789,60.1833071],[24.8253982,60.1830383],[24.8255514,60.1829603],[24.8259819,60.1831791],[24.8262257,60.1830661],[24.8249778,60.1824239],[24.8247717,60.1825219],[24.8253296,60.1828163],[24.8250832,60.1829312],[24.8238246,60.1822815]]]}},
{"type":"Feature","properties":{"@id":"way/7588593","addr:housenumber":"1","addr:postcode":"02150","addr:street":"Vuorimiehentie","amenity":"university","building":"yes","int_name":"Aalto Forest Products Technology 1","name":"Aalto Puunjalostustekniikka 1"},"geometry":{"type":"Polygon","coordinates":[[[24.8251791,60.1819391],[24.825546,60.1817607],[24.8253546,60.1816634],[24.826018,60.1813408],[24.8257287,60.1811936],[24.8251724,60.1814641],[24.8251086,60.1815301],[24.8247031,60.181324],[24.8243281,60.1815064],[24.8251791,60.1819391]]]}},
{"type":"Feature","properties":{"@id":"way/7588741","addr:housenumber":"3","addr:postcode":"02150","addr:street":"Tekniikantie","amenity":"university","building":"yes","int_name":"Aalto Forest Products Technology 2","name":"Aalto Puunjalostustekniikka 2"},"geometry":{"type":"Polygon","coordinates":[[[24.8250152,60.1810143],[24.825623,60.1811138],[24.8257341,60.1809459],[24.8261569,60.1810151],[24.8262471,60.1808787],[24.825815,60.180808],[24.8258736,60.1807196],[24.825275,60.1806217],[24.8250152,60.1810143]]]}},
{"type":"Feature","properties":{"@id":"way/7588897","addr:housenumber":"2","addr:postcode":"02150","addr:street":"Metallimiehenkuja","building":"yes"},"geometry":{"type":"Polygon","coordinates":[[[24.8287518,60.1837361],[24.8289536,60.1836517],[24.8282704,60.1833404],[24.8280937,60.1834362],[24.8287518,60.1837361]]]}},
{"type":"Feature","properties":{"@id":"way/7588940","amenity":"university","building":"yes","int_name":"Aalto Architecture Workshop","name":"Aalto Arkkitehtipaja","surface":"paved"},"geometry":{"type":"Polygon","coordinates":[[[24.8294235,60.1836717],[24.8295895,60.1835812],[24.8287599,60.1832048],[24.8285939,60.1832952],[24.8294235,60.1836717]]]}},
{"type":"Feature","properties":{"@id":"way/7589907","addr:housenumber":"11","addr:postcode":"02150","addr:street":"Otakaari","building":"yes","source":"Bing"},"geometry":{"type":"Polygon","coordinates":[[[24.8305014,60.1845452],[24.8301866,60.184498],[24.8301411,60.1847671],[24.8301866,60.1848376],[24.8304923,60.1848486],[24.8305014,60.1845452]]]}},
{"type":"Feature","properties":{"@id":"way/7589963","addr:housenumber":"11","addr:postcode":"02150","addr:street":"Otakaari","building":"commercial","source":"Bing"},"geometry":{"type":"Polygon","coordinates":[[[24.830517,60.1844349],[24.830604,60.1844159],[24.8308442,60.184248],[24.8308045,60.184234],[24.8314972,60.1837499],[24.8313246,60.1836888],[24.8303443,60.1843739],[24.830517,60.1844349]]]}},
{"type":"Feature","properties":{"@id":"way/10053031","addr:housenumber":"3","addr:postcode":"02110","addr:street":"Otsonkallio","building":"apartments","landuse":"residential"},"geometry":{"type":"Polygon","coordinates":[[[24.8155522,60.1799271],[24.8166433,60.1803628],[24.8172133,60.1803686],[24.8172218,60.1802727],[24.8167012,60.180264],[24.8156689,60.1798503],[24.8155522,60.1799271]]]}},
{"type":"Feature","properties":{"@id":"way/10053032","addr:housenumber":"3","addr:postcode":"02110","addr:street":"Otsonkallio","building":"apartments","landuse":"residential"},"geometry":{"type":"Polygon","coordinates":[[[24.8156811,60.179573],[24.815823,60.1797471],[24.8160933,60.1796904],[24.8159444,60.1795209],[24.8156811,60.179573]]]}},
{"type":"Feature","properties":{"@id":"way/10053033","addr:housenumber":"3","addr:postcode":"02110","addr:street":"Otsonkallio","building":"apartments","landuse":"residential","name":"R"},"geometry":{"type":"Polygon","coordinates":[[[24.8161576,60.1794779],[24.8164537,60.1794428],[24.8163786,60.1792575],[24.816087,60.1792879],[24.8161576,60.1794779]]]}},
{"type":"Feature","properties":{"@id":"way/10053034","addr:housenumber":"3","addr:postcode":"02110","addr:street":"Otsonkallio","building":"apartments","landuse":"residential"},"geometry":{"type":"Polygon","coordinates":[[[24.8166104,60.1792391],[24.8169041,60.1792272],[24.8168789,60.1790314],[24.8165882,60.1790416],[24.8166104,60.1792391]]]}},
{"type":"Feature","properties":{"@id":"way/10053035","addr:housenumber":"3","addr:postcode":"02110","addr:street":"Otsonkallio","building":"apartments","landuse":"residential"},"geometry":{"type":"Polygon","coordinates":[[[24.8171911,60.1801572],[24.817433,60.1801616],[24.8174647,60.1794606],[24.8175338,60.1794624],[24.8175617,60.1791673],[24.8173176,60.1791628],[24.8172993,60.1794538],[24.8172169,60.1794519],[24.8171911,60.1801572]]]}},
{"type":"Feature","properties":{"@id":"way/11074082","addr:housenumber":"5","addr:street":"Servinkuja","building":"apartments","operator":"HOAS","vuokra-asuntoja":"yes"},"geometry":{"type":"Polygon","coordinates":[[[24.8332142,60.1912051],[24.8335747,60.1912435],[24.8336777,60.1910046],[24.8333172,60.1909662],[24.8332142,60.1912051]]]}},
{"type":"Feature","properties":{"@id":"way/16282807","addr:housenumber":"16","addr:postcode":"02150","addr:street":"Keilaranta","building":"yes","name":"Swing Life Science Center"},"geometry":{"type":"Polygon","coordinates":[[[24.8327565,60.178197],[24.8322218,60.1780912],[24.832327,60.1779597],[24.8317285,60.1778412],[24.831814,60.1777344],[24.8315163,60.1776754],[24.8314127,60.1778048],[24.831155,60.1777538],[24.8310515,60.177883],[24.8312866,60.1779296],[24.8312599,60.177963],[24.8314842,60.1780074],[24.8316587,60.1779353],[24.8318519,60.1781173],[24.8318002,60.1781818],[24.8321014,60.1782156],[24.8325617,60.1783067],[24.8324515,60.1784444],[24.8327187,60.1784973],[24.8326696,60.1785587],[24.8329635,60.1786169],[24.8330665,60.1784882],[24.8333147,60.1785829],[24.8332365,60.1786805],[24.8335552,60.1787436],[24.8335942,60.1786949],[24.8338507,60.1787457],[24.8339826,60.178581],[24.8337159,60.1785282],[24.8338044,60.1784177],[24.8335034,60.1783581],[24.8334412,60.1784357],[24.8331425,60.1783766],[24.8332138,60.1782876],[24.8327565,60.178197]]]}},
{"type":"Feature","properties":{"@id":"way/23043143","addr:housenumber":"13","addr:street":"Itäranta","building":"yes"},"geometry":{"type":"Polygon","coordinates":[[[24.8236052,60.1784336],[24.823751,60.1785212],[24.8242272,60.1783276],[24.8242605,60.1783473],[24.8252266,60.1779488],[24.8250834,60.17786],[24.8241246,60.178254],[24.8240872,60.1782318],[24.8236052,60.1784336]]]}},
{"type":"Feature","properties":{"@id":"way/23043184","building":"apartments"},"geometry":{"type":"Polygon","coordinates":[[[24.8206149,60.1786804],[24.8208872,60.1786335],[24.8208016,60.1784809],[24.8205291,60.178531],[24.8206149,60.1786804]]]}},
{"type":"Feature","properties":{"@id":"way/23043199","building":"apartments"},"geometry":{"type":"Polygon","coordinates":[[[24.8213813,60.1787002],[24.8216536,60.1786533],[24.8215679,60.1785006],[24.8212955,60.1785508],[24.8213813,60.1787002]]]}},
{"type":"Feature","properties":{"@id":"way/23043200","building":"apartments"},"geometry":{"type":"Polygon","coordinates":[[[24.8215865,60.1783168],[24.8218589,60.1782699],[24.8217732,60.1781173],[24.8215007,60.1781674],[24.8215865,60.1783168]]]}},
{"type":"Feature","properties":{"@id":"way/23043205","building":"apartments"},"geometry":{"type":"Polygon","coordinates":[[[24.8185204,60.1786039],[24.8187927,60.178557],[24.8187071,60.1784044],[24.8184346,60.1784545],[24.8185204,60.1786039]]]}},
{"type":"Feature","properties":{"@id":"way/23043206","building":"apartments"},"geometry":{"type":"Polygon","coordinates":[[[24.819218,60.1786349],[24.8194903,60.178588],[24.8194047,60.1784354],[24.8191322,60.1784855],[24.819218,60.1786349]]]}},
{"type":"Feature","properties":{"@id":"way/23043207","building":"apartments"},"geometry":{"type":"Polygon","coordinates":[[[24.8199354,60.1786603],[24.8202077,60.1786134],[24.8201221,60.1784608],[24.8198496,60.1785109],[24.8199354,60.1786603]]]}},
{"type":"Feature","properties":{"@id":"way/23043211","addr:housenumber":"16","addr:postcode":"02110","addr:street":"Otsolahdentie","building":"apartments"},"geometry":{"type":"Polygon","coordinates":[[[24.8178561,60.1781012],[24.8181136,60.1780586],[24.8180003,60.1778673],[24.8177445,60.1779092],[24.8178561,60.1781012]]]}},
{"type":"Feature","properties":{"@id":"way/23043225","addr:housenumber":"18","addr:postcode":"02110","addr:street":"Otsolahdentie","building":"apartments"},"geometry":{"type":"Polygon","coordinates":[[[24.8172159,60.178455],[24.8174905,60.1784123],[24.8173446,60.1781434],[24.8170664,60.1781909],[24.8172159,60.178455]]]}},
{"type":"Feature","properties":{"@id":"way/23043236","addr:housenumber":"1","addr:street":"Nallenpolku","building":"residential"},"geometry":{"type":"Polygon","coordinates":[[[24.8189973,60.178202],[24.8194198,60.1781865],[24.8194145,60.1781508],[24.8205383,60.1781097],[24.8205164,60.1779614],[24.8194487,60.1780004],[24.8194607,60.1780813],[24.8189821,60.1780988],[24.8189973,60.178202]]]}},
{"type":"Feature","properties":{"@id":"way/23043313","addr:housenumber":"8","addr:postcode":"02110","addr:street":"Kimmeltie","building":"yes"},"geometry":{"type":"Polygon","coordinates":[[[24.8189208,60.1801632],[24.8191895,60.1800508],[24.8192294,60.1800744],[24.8194877,60.1799663],[24.8193148,60.1798589],[24.8189316,60.1800137],[24.8188256,60.1799465],[24.8186921,60.1800014],[24.8189208,60.1801632]]]}},
{"type":"Feature","properties":{"@id":"way/23043326","addr:city":"Espoo","addr:housenumber":"2","addr:postcode":"02110","addr:street":"Otsonkallio","building":"apartments"},"geometry":{"type":"Polygon","coordinates":[[[24.8185619,60.1796189],[24.8189377,60.1795722],[24.8193411,60.1795643],[24.8193478,60.179473],[24.818909,60.1794745],[24.818512,60.1795395],[24.8185619,60.1796189]]]}},
{"type":"Feature","properties":{"@id":"way/23043329","addr:housenumber":"4","addr:postcode":"02110","addr:street":"Otsonkallio","building":"terrace"},"geometry":{"type":"Polygon","coordinates":[[[24.8185647,60.1790808],[24.8181512,60.1791392],[24.8181512,60.1792472],[24.8185653,60.1791958],[24.8185647,60.1790808]]]}},
{"type":"Feature","properties":{"@id":"way/23043335","addr:housenumber":"4","addr:postcode":"02110","addr:street":"Otsonkallio","building":"terrace"},"geometry":{"type":"Polygon","coordinates":[[[24.8188125,60.179156],[24.8188125,60.1791866],[24.8194908,60.1791866],[24.8194908,60.1790749],[24.8188114,60.1790749],[24.8188125,60.179156]]]}},
{"type":"Feature","properties":{"@id":"way/23043336","addr:housenumber":"1","addr:street":"Otsonkallio","building":"yes","source":"Bing"},"geometry":{"type":"Polygon","coordinates":[[[24.8175803,60.180566],[24.8180121,60.1805793],[24.8180437,60.1803252],[24.8176118,60.180312],[24.8175803,60.180566]]]}},
{"type":"Feature","properties":{"@id":"way/24332799","addr:housenumber":"9","addr:street":"Jämeräntaival","building":"residential"},"geometry":{"type":"Polygon","coordinates":[[[24.8394586,60.1885927],[24.8395503,60.1888506],[24.8399228,60.1887914],[24.8398403,60.1885592],[24.8394586,60.1885927]]]}},
{"type":"Feature","properties":{"@id":"way/24332800","addr:housenumber":"11","addr:street":"Jämeräntaival","building":"apartments","vuokra-asuntoja":"yes"},"geometry":{"type":"Polygon","coordinates":[[[24.8394279,60.1890573],[24.8394831,60.1892264],[24.8395687,60.1892743],[24.8396595,60.189552],[24.8395938,60.1896146],[24.8396825,60.1897514],[24.8398574,60.1897373],[24.8398547,60.1895936],[24.8399227,60.1895308],[24.839832,60.189253],[24.839747,60.1892051],[24.8396553,60.1889243],[24.8394279,60.1889147],[24.8394279,60.1890573]]]}},
{"type":"Feature","properties":{"@id":"way/24333770","addr:housenumber":"7","addr:street":"Jämeräntaival","building":"apartments","start_date":"1952","vuokra-asuntoja":"yes"},"geometry":{"type":"Polygon","coordinates":[[[24.8382599,60.1882931],[24.838281,60.1884849],[24.8385673,60.1884771],[24.8385462,60.1882853],[24.8382599,60.1882931]]]}},
{"type":"Feature","properties":{"@id":"way/24333771","addr:housenumber":"7","addr:street":"Jämeräntaival","building":"apartments","start_date":"1952","vuokra-asuntoja":"yes"},"geometry":{"type":"Polygon","coordinates":[[[24.8384245,60.1886652],[24.8384469,60.1888593],[24.8387304,60.1888512],[24.8387081,60.1886571],[24.8384245,60.1886652]]]}},
{"type":"Feature","properties":{"@id":"way/24333772","building":"residential"},"geometry":{"type":"Polygon","coordinates":[[[24.8384656,60.1885764],[24.8383091,60.1886093],[24.8383312,60.188763],[24.8384188,60.1887599],[24.8384017,60.1886412],[24.8384656,60.1885764]]]}},
{"type":"Feature","properties":{"@id":"way/24333796","addr:housenumber":"7","addr:street":"Jämeräntaival","building":"apartments","start_date":"1952","vuokra-asuntoja":"yes"},"geometry":{"type":"Polygon","coordinates":[[[24.8390517,60.1885749],[24.8390203,60.1887564],[24.8393033,60.1887685],[24.8393347,60.188587],[24.8390517,60.1885749]]]}},
{"type":"Feature","properties":{"@id":"way/24333883","addr:housenumber":"5","building":"apartments","start_date":"1952","vuokra-asuntoja":"yes"},"geometry":{"type":"Polygon","coordinates":[[[24.83833,60.187888],[24.8383311,60.1879167],[24.8386066,60.1879401],[24.838598,60.1876988],[24.8383241,60.1877208],[24.83833,60.187888]]]}},
{"type":"Feature","properties":{"@id":"way/24333899","addr:housenumber":"5","building":"apartments","start_date":"1952","vuokra-asuntoja":"yes"},"geometry":{"type":"Polygon","coordinates":[[[24.8377224,60.1878399],[24.8377597,60.1879842],[24.8377747,60.1880419],[24.8380678,60.1880232],[24.8380408,60.187919],[24.8380334,60.1878904],[24.8380155,60.1878211],[24.8377224,60.1878399]]]}},
{"type":"Feature","properties":{"@id":"way/24333918","addr:housenumber":"5","addr:street":"Jämeräntaival","building":"residential","building:levels":"1","start_date":"1952"},"geometry":{"type":"Polygon","coordinates":[[[24.8377597,60.1879842],[24.8377224,60.1878399],[24.8377015,60.1877749],[24.8376505,60.1877747],[24.8376203,60.1879836],[24.8377597,60.1879842]]]}},
{"type":"Feature","properties":{"@id":"way/24333934","addr:housenumber":"5","addr:street":"Jämeräntaival","building":"apartments","start_date":"1952","vuokra-asuntoja":"yes"},"geometry":{"type":"Polygon","coordinates":[[[24.8376753,60.1876815],[24.8377276,60.1876853],[24.837848,60.1876942],[24.8379076,60.1874942],[24.8376146,60.1874726],[24.8375549,60.1876726],[24.8376753,60.1876815]]]}},
{"type":"Feature","properties":{"@id":"way/24333952","addr:housenumber":"3","addr:street":"Jämeräntaival","building":"apartments","start_date":"1952","vuokra-asuntoja":"yes"},"geometry":{"type":"Polygon","coordinates":[[[24.8368967,60.1872892],[24.8370576,60.1872939],[24.8372232,60.1872987],[24.8372618,60.18708],[24.8369358,60.1870716],[24.8368967,60.1872892]]]}},
{"type":"Feature","properties":{"@id":"way/24333970","addr:housenumber":"3","addr:street":"Jämeräntaival","building":"apartments","start_date":"1952","vuokra-asuntoja":"yes"},"geometry":{"type":"Polygon","coordinates":[[[24.8362615,60.1872637],[24.8362719,60.1873855],[24.8362787,60.1874645],[24.83661,60.1874574],[24.8366004,60.1873449],[24.8365957,60.1872899],[24.8365928,60.1872566],[24.8362615,60.1872637]]]}},
{"type":"Feature","properties":{"@id":"way/24334035","addr:housenumber":"3","addr:street":"Jämeräntaival","building":"apartments","start_date":"1952","vuokra-asuntoja":"yes"},"geometry":{"type":"Polygon","coordinates":[[[24.8361356,60.1871552],[24.8362468,60.1871518],[24.8363615,60.1871482],[24.8363349,60.1869375],[24.8360077,60.1869477],[24.8360342,60.1871584],[24.8361356,60.1871552]]]}},
{"type":"Feature","properties":{"@id":"way/24334123","addr:housenumber":"1","addr:street":"Jämeräntaival","building":"apartments","start_date":"1966","vuokra-asuntoja":"yes"},"geometry":{"type":"Polygon","coordinates":[[[24.8350377,60.1869973],[24.8350234,60.1870532],[24.8352172,60.1872625],[24.8354846,60.1872118],[24.8351824,60.1868566],[24.8350804,60.1868123],[24.8346982,60.1867286],[24.8344767,60.186721],[24.8345848,60.1868748],[24.8344923,60.1869253],[24.8345232,60.1873592],[24.8345525,60.1874096],[24.8348162,60.1873931],[24.8347938,60.1870359],[24.8347849,60.1868957],[24.835011,60.1868921],[24.8350377,60.1869973]]]}},
{"type":"Feature","properties":{"@id":"way/24334160","addr:housenumber":"20","addr:street":"Otakaari","building":"apartments","vuokra-asuntoja":"yes"},"geometry":{"type":"Polygon","coordinates":[[[24.8334861,60.1865614],[24.8336298,60.1868377],[24.8335829,60.1868437],[24.8336974,60.1870638],[24.8338579,60.1870432],[24.8339404,60.1869598],[24.8338889,60.1867825],[24.8337558,60.1865267],[24.8334861,60.1865614]]]}},
{"type":"Feature","properties":{"@id":"way/24334231","addr:housenumber":"6","addr:street":"Jämeräntaival","building":"apartments","vuokra-asuntoja":"yes"},"geometry":{"type":"Polygon","coordinates":[[[24.837209,60.1882889],[24.8371783,60.1884959],[24.8369892,60.1884851],[24.8370252,60.188565],[24.8369599,60.1887736],[24.8372473,60.1888054],[24.83728,60.1885456],[24.8374699,60.1885564],[24.8374621,60.188347],[24.8375633,60.1883527],[24.8375461,60.188237],[24.8373429,60.1882254],[24.837209,60.1882889]]]}},
{"type":"Feature","properties":{"@id":"way/24334281","addr:housenumber":"10","addr:street":"Jämeräntaival","building":"apartments","vuokra-asuntoja":"yes"},"geometry":{"type":"Polygon","coordinates":[[[24.8386534,60.1900067],[24.8386587,60.1902476],[24.8387735,60.190247],[24.8387789,60.1904914],[24.8386435,60.1904921],[24.8386486,60.1907215],[24.8389278,60.19072],[24.8389227,60.1904907],[24.8390499,60.19049],[24.8390445,60.1902436],[24.8389168,60.1902443],[24.8389115,60.1900053],[24.8386534,60.1900067]]]}},
{"type":"Feature","properties":{"@id":"way/24334282","addr:housenumber":"10","addr:street":"Jämeräntaival","building":"apartments","vuokra-asuntoja":"yes"},"geometry":{"type":"Polygon","coordinates":[[[24.8381134,60.1894832],[24.8382553,60.1897102],[24.8383601,60.189694],[24.8384923,60.1899054],[24.8387494,60.1898657],[24.8385911,60.1896125],[24.8384821,60.1896293],[24.8383663,60.1894441],[24.8381134,60.1894832]]]}},
{"type":"Feature","properties":{"@id":"way/24334286","addr:housenumber":"11","addr:street":"Jämeräntaival","building":"apartments","vuokra-asuntoja":"yes"},"geometry":{"type":"Polygon","coordinates":[[[24.8390957,60.1893755],[24.8391077,60.1893374],[24.8389492,60.1890692],[24.83872,60.1890689],[24.8386994,60.1891057],[24.8388578,60.1893739],[24.838958,60.1894278],[24.8390989,60.1897018],[24.8393487,60.18967],[24.8392078,60.1893961],[24.8390957,60.1893755]]]}},
{"type":"Feature","properties":{"@id":"way/24342453","amenity":"university","building":"yes","guard:operator":"Securitas","int_name":"Aalto High Voltage Engineering Lab","internet_access":"wlan","name":"Aalto Suurjännitelaboratorio"},"geometry":{"type":"Polygon","coordinates":[[[24.831023,60.1897961],[24.8311797,60.1897958],[24.8311802,60.1898503],[24.8313476,60.1898811],[24.8319372,60.1898798],[24.8319367,60.1898265],[24.8321798,60.1898259],[24.8321782,60.1896431],[24.8320976,60.1896433],[24.8320964,60.1895088],[24.8310206,60.1895213],[24.831023,60.1897961]]]}},
{"type":"Feature","properties":{"@id":"way/24342454","amenity":"university","building":"yes","building:maintenance:operator":"ISS","guard:operator":"Securitas","int_name":"Aalto University Electronics","internet_access":"wlan","loc_name":"Sähkö","name":"Aalto-yliopisto Sähkötekniikka","name:en":"Aalto University School of Electrical Engineering","name:sv":"Aalto-universitetet Högskolan för elektroteknik","wifi":"free"},"geometry":{"type":"Polygon","coordinates":[[[24.8315843,60.1886503],[24.8311674,60.1886436],[24.831246,60.1889572],[24.830912,60.1889579],[24.8309049,60.1886357],[24.8306386,60.1886357],[24.8306399,60.1889141],[24.8303228,60.1889174],[24.83009,60.1888034],[24.829961,60.1889077],[24.82993,60.1890038],[24.8300981,60.1891744],[24.830336,60.1890542],[24.8306386,60.1890494],[24.8306449,60.1893287],[24.8309122,60.1893287],[24.8309127,60.1890488],[24.8312467,60.1890481],[24.8312417,60.1893302],[24.831514,60.1893267],[24.8315106,60.1890885],[24.8318384,60.1890874],[24.8318418,60.18933],[24.8321075,60.189329],[24.8321046,60.1891245],[24.8324439,60.1891234],[24.8324513,60.1896435],[24.8325063,60.1896434],[24.8325086,60.1898067],[24.8327567,60.1898058],[24.8327537,60.1895938],[24.8327047,60.1895939],[24.8326906,60.1886039],[24.8324321,60.1886048],[24.8324382,60.1890333],[24.8321047,60.1890345],[24.8321014,60.1885872],[24.8318013,60.1885878],[24.8318347,60.1886539],[24.8318372,60.188993],[24.8315077,60.1889936],[24.8315063,60.1887977],[24.8316041,60.1887584],[24.8315843,60.1886503]]]}},
{"type":"Feature","properties":{"@id":"way/24342456","addr:housenumber":"7","addr:street":"Otakaari","building":"yes","building:maintenance:operator":"ISS","guard:operator":"Securitas","int_name":"Aalto Electronics","name":"Aalto Sähkötekniikka"},"geometry":{"type":"Polygon","coordinates":[[[24.8330231,60.1895624],[24.8333264,60.1895476],[24.8334239,60.1894835],[24.8334148,60.1890427],[24.8337018,60.1890412],[24.8336924,60.1885856],[24.8333021,60.1885876],[24.8333001,60.1884893],[24.8330673,60.1884905],[24.8330721,60.1887227],[24.8333009,60.1887215],[24.833305,60.188919],[24.8330098,60.1889205],[24.8330231,60.1895624]]]}},
{"type":"Feature","properties":{"@id":"way/24342605","addr:housenumber":"3","addr:street":"Servinkuja","building":"apartments","vuokra-asuntoja":"yes"},"geometry":{"type":"Polygon","coordinates":[[[24.835378,60.1913717],[24.8356887,60.1914235],[24.8357408,60.1911969],[24.8355555,60.1911865],[24.8354096,60.1912339],[24.835378,60.1913717]]]}},
{"type":"Feature","properties":{"@id":"way/24342691","addr:housenumber":"8","addr:staircase":"B","addr:street":"Otaranta","building":"apartments","vuokra-asuntoja":"yes"},"geometry":{"type":"Polygon","coordinates":[[[24.8361393,60.1866128],[24.8364897,60.1866105],[24.8364841,60.1863998],[24.8365747,60.1863185],[24.836309,60.1863203],[24.8363141,60.1865138],[24.8361367,60.186515],[24.8361393,60.1866128]]]}},
{"type":"Feature","properties":{"@id":"way/24342700","addr:housenumber":"8","addr:staircase":"A","addr:street":"Otaranta","building":"apartments","vuokra-asuntoja":"yes"},"geometry":{"type":"Polygon","coordinates":[[[24.8355778,60.1866113],[24.8359402,60.1866116],[24.8359409,60.1864065],[24.8360506,60.1864066],[24.8360509,60.18632],[24.8357659,60.1863197],[24.8357652,60.1865227],[24.8355781,60.1865226],[24.8355778,60.1866113]]]}},
{"type":"Feature","properties":{"@id":"way/24342761","addr:housenumber":"8","addr:staircase":"C","addr:street":"Otaranta","building":"apartments","vuokra-asuntoja":"yes"},"geometry":{"type":"Polygon","coordinates":[[[24.8359735,60.1862226],[24.8363171,60.1862222],[24.8363159,60.1859942],[24.8364456,60.185994],[24.836445,60.1858891],[24.8361363,60.1858894],[24.8361375,60.1861114],[24.8359729,60.1861116],[24.8359735,60.1862226]]]}},
{"type":"Feature","properties":{"@id":"way/24342769","addr:housenumber":"8","addr:staircase":"D","addr:street":"Otaranta","building":"apartments","vuokra-asuntoja":"yes"},"geometry":{"type":"Polygon","coordinates":[[[24.8365258,60.186213],[24.8368309,60.1862135],[24.8368321,60.1860175],[24.8369427,60.1860177],[24.8369433,60.1859285],[24.8366966,60.1859281],[24.8366956,60.1860991],[24.8365266,60.1860989],[24.8365258,60.186213]]]}},
{"type":"Feature","properties":{"@id":"way/24342770","building":"yes","created_by":"Potlatch 0.10b"},"geometry":{"type":"Polygon","coordinates":[[[24.8365139,60.1858426],[24.8365139,60.1858981],[24.8367285,60.1858981],[24.8367371,60.1858426],[24.8365139,60.1858426]]]}},
{"type":"Feature","properties":{"@id":"way/24342775","addr:housenumber":"8","addr:staircase":"E","addr:street":"Otaranta","building":"apartments","vuokra-asuntoja":"yes"},"geometry":{"type":"Polygon","coordinates":[[[24.8368651,60.1863851],[24.837151,60.1863852],[24.8371511,60.1861348],[24.8372497,60.1860572],[24.8370038,60.1860572],[24.8370038,60.1862694],[24.8368652,60.1862694],[24.8368651,60.1863851]]]}},
{"type":"Feature","properties":{"@id":"way/24408439","addr:housenumber":"6","building":"industrial","name":"Otaniemen voimalaitos","power":"generator","source":"Bing"},"geometry":{"type":"Polygon","coordinates":[[[24.8279592,60.188246],[24.8283824,60.1881126],[24.8279647,60.1877851],[24.8276512,60.1878633],[24.8277589,60.1879478],[24.8276024,60.188042],[24.827762,60.1880914],[24.8279592,60.188246]]]}},
{"type":"Feature","properties":{"@id":"way/26139101","addr:housenumber":"11","addr:street":"Jämeräntaival","building":"apartments","vuokra-asuntoja":"yes"},"geometry":{"type":"Polygon","coordinates":[[[24.839723,60.1906089],[24.8399936,60.1906162],[24.8401424,60.190307],[24.8400649,60.1902978],[24.8402218,60.1899719],[24.8400091,60.1899264],[24.8399227,60.1900001],[24.8398261,60.1902126],[24.8398863,60.1902198],[24.839723,60.1906089]]]}},
{"type":"Feature","properties":{"@id":"way/26139146","building":"yes","loc_name":"Rantsu","name":"Rantasauna"},"geometry":{"type":"Polygon","coordinates":[[[24.8391361,60.1881806],[24.8393645,60.1883372],[24.8395298,60.1882646],[24.8393178,60.1881188],[24.8391361,60.1881806]]]}},
{"type":"Feature","properties":{"@id":"way/26239698","addr:housenumber":"2","addr:postcode":"02150","addr:street":"Otakallio","building":"apartments","omistusasuntoja":"yes"},"geometry":{"type":"Polygon","coordinates":[[[24.8325311,60.1830411],[24.8321164,60.183251],[24.832276,60.183329],[24.8326906,60.1831191],[24.8326054,60.1830774],[24.833201,60.1827759],[24.8332854,60.1828171],[24.8336993,60.1826076],[24.8337811,60.1826475],[24.8342006,60.1824351],[24.8340406,60.182357],[24.8336211,60.1825693],[24.8335399,60.1825296],[24.833126,60.1827391],[24.833038,60.1826962],[24.8324424,60.1829977],[24.8325311,60.1830411]]]}},
{"type":"Feature","properties":{"@id":"way/26314304","building":"yes","man_made":"chimney","source":"Bing"},"geometry":null},
{"type":"Feature","properties":{"@id":"way/26608050","addr:housenumber":"1","addr:postcode":"02150","addr:street":"Otakallio","building":"apartments","omistusasuntoja":"yes"},"geometry":{"type":"Polygon","coordinates":[[[24.8347682,60.1828968],[24.8338827,60.1833191],[24.8340279,60.1833884],[24.8349106,60.1829648],[24.8347682,60.1828968]]]}},
{"type":"Feature","properties":{"@id":"way/26608051","building":"residential","created_by":"Potlatch 0.10b"},"geometry":{"type":"Polygon","coordinates":[[[24.8344092,60.1835646],[24.8342548,60.1834919],[24.834059,60.1835946],[24.8339426,60.1835397],[24.8337312,60.1836506],[24.8338854,60.1837233],[24.83408,60.1836213],[24.8341965,60.1836762],[24.8344092,60.1835646]]]}},
{"type":"Feature","properties":{"@id":"way/26608067","addr:housenumber":"2","addr:postcode":"02150","addr:street":"Otakuja","building":"residential"},"geometry":{"type":"Polygon","coordinates":[[[24.8327158,60.1836116],[24.8325363,60.1837062],[24.832799,60.1838294],[24.8326221,60.1839227],[24.8327667,60.1839414],[24.8329115,60.1840408],[24.8330427,60.1839716],[24.8330697,60.1838911],[24.8329016,60.1838123],[24.8330156,60.1837522],[24.8327158,60.1836116]]]}},
{"type":"Feature","properties":{"@id":"way/26608099","addr:housenumber":"2","addr:postcode":"02150","addr:street":"Otakallio","building":"apartments","omistusasuntoja":"yes"},"geometry":{"type":"Polygon","coordinates":[[[24.834275,60.181994],[24.8341335,60.1820662],[24.8347743,60.1823765],[24.8349157,60.1823043],[24.834275,60.181994]]]}},
{"type":"Feature","properties":{"@id":"way/26608151","addr:housenumber":"2","addr:postcode":"02150","addr:street":"Lämpömiehenkuja","building":"yes","int_name":"Aalto University","name":"Aalto-yliopistosäätiö"},"geometry":{"type":"Polygon","coordinates":[[[24.8327715,60.1816453],[24.8325682,60.1815812],[24.8319892,60.1820353],[24.831873,60.1819681],[24.8320191,60.1818536],[24.8318416,60.1817976],[24.831235,60.1822734],[24.8313926,60.182323],[24.8313398,60.1824474],[24.8315158,60.1825029],[24.8317957,60.1822834],[24.8316925,60.1822509],[24.8318674,60.1820651],[24.8322113,60.1821736],[24.8320027,60.1823371],[24.8323026,60.1824317],[24.8327329,60.1820942],[24.832435,60.1820003],[24.8322731,60.1821273],[24.8321903,60.1821011],[24.8327715,60.1816453]]]}},
{"type":"Feature","properties":{"@id":"way/26608154","building":"yes","created_by":"Potlatch 0.10b"},"geometry":{"type":"Polygon","coordinates":[[[24.8323275,60.1813851],[24.8321689,60.1815091],[24.8324391,60.1815946],[24.8325977,60.1814706],[24.8323275,60.1813851]]]}},
{"type":"Feature","properties":{"@id":"way/26608177","addr:housenumber":"3","addr:postcode":"02150","addr:street":"Lämpömiehenkuja","building":"yes","int_name":"Aalto Art House","name":"Aalto Taiteiden talo"},"geometry":{"type":"Polygon","coordinates":[[[24.8306194,60.1819066],[24.8310124,60.1814084],[24.8307801,60.1813631],[24.8302914,60.1819827],[24.8305237,60.182028],[24.8306194,60.1819066]]]}},
{"type":"Feature","properties":{"@id":"way/26608195","addr:housenumber":"3","addr:postcode":"02150","addr:street":"Lämpömiehenkuja","building":"yes"},"geometry":{"type":"Polygon","coordinates":[[[24.8301973,60.18137],[24.8299517,60.1816909],[24.8301956,60.181737],[24.8304411,60.1814161],[24.8301973,60.18137]]]}},
{"type":"Feature","properties":{"@id":"way/26608207","building":"yes","created_by":"Potlatch 0.10b"},"geometry":{"type":"Polygon","coordinates":[[[24.8330259,60.1818989],[24.8331813,60.181784],[24.8330266,60.1817322],[24.8328712,60.1818471],[24.8330259,60.1818989]]]}},
{"type":"Feature","properties":{"@id":"way/26608211","building":"yes"},"geometry":null},
{"type":"Feature","properties":{"@id":"way/26608273","addr:housenumber":"5","addr:postcode":"02150","addr:street":"Betonimiehenkuja","building":"yes","int_name":"Aalto Design Factory","name":"Design Factory"},"geometry":{"type":"Polygon","coordinates":[[[24.8313148,60.1807397],[24.8311297,60.1809757],[24.8324696,60.18124],[24.832602,60.1810713],[24.8314901,60.1808507],[24.8315425,60.1807839],[24.8313148,60.1807397]]]}},
{"type":"Feature","properties":{"@id":"way/26608317","addr:housenumber":"3","addr:postcode":"02150","addr:street":"Betonimiehenkuja","building":"office","int_name":"Aalto Startup Sauna","name":"Startup Sauna","old_name":"Aalto Venture Garage"},"geometry":{"type":"Polygon","coordinates":[[[24.8316392,60.180369],[24.8314762,60.1806102],[24.8321778,60.1807561],[24.8323408,60.1807332],[24.8324146,60.1806455],[24.8330571,60.1807791],[24.8332006,60.1806085],[24.8324501,60.1804524],[24.832389,60.180525],[24.8316392,60.180369]]]}},
{"type":"Feature","properties":{"@id":"way/26608330","addr:housenumber":"1","addr:postcode":"02150","addr:street":"Betonimiehenkuja","building":"yes"},"geometry":{"type":"Polygon","coordinates":[[[24.8321209,60.1801682],[24.8322754,60.1799719],[24.8323441,60.1799847],[24.8325759,60.1796817],[24.8321644,60.1796052],[24.8319423,60.1798746],[24.8320172,60.1798899],[24.8318343,60.1801126],[24.8321209,60.1801682]]]}},
{"type":"Feature","properties":{"@id":"way/26608556","building":"yes"},"geometry":{"type":"Polygon","coordinates":[[[24.8168641,60.1823746],[24.8165816,60.1822661],[24.8161384,60.1825513],[24.8164209,60.1826598],[24.8168641,60.1823746]]]}},
{"type":"Feature","properties":{"@id":"way/26608560","building":"stable","created_by":"Potlatch 0.10b"},"geometry":{"type":"Polygon","coordinates":[[[24.8170896,60.1819242],[24.8168102,60.1822287],[24.8170137,60.1822749],[24.8172931,60.1819704],[24.8170896,60.1819242]]]}},
{"type":"Feature","properties":{"@id":"way/26608571","building":"yes"},"geometry":{"type":"Polygon","coordinates":[[[24.8200244,60.181039],[24.8197318,60.1811197],[24.8197314,60.1812905],[24.8199626,60.1813642],[24.8201823,60.1813503],[24.8203531,60.181208],[24.8203088,60.1811225],[24.8200244,60.181039]]]}},
{"type":"Feature","properties":{"@id":"way/26608579","addr:housenumber":"3","addr:postcode":"02150","addr:street":"Kemistintie","building":"yes"},"geometry":{"type":"Polygon","coordinates":[[[24.8216057,60.1821424],[24.8214861,60.182295],[24.8227191,60.1825339],[24.8228326,60.1824789],[24.8229296,60.1823551],[24.8227089,60.1823562],[24.8216057,60.1821424]]]}},
{"type":"Feature","properties":{"@id":"way/27052628","building":"residential","created_by":"Potlatch 0.10b"},"geometry":{"type":"Polygon","coordinates":[[[24.8147458,60.1781263],[24.8148773,60.1781551],[24.8150554,60.1779539],[24.8149239,60.1779251],[24.8147458,60.1781263]]]}},
{"type":"Feature","properties":{"@id":"way/27052658","addr:housenumber":"7","building":"residential","created_by":"Potlatch 0.10b"},"geometry":{"type":"Polygon","coordinates":[[[24.8158226,60.1783228],[24.8158398,60.1779108],[24.8156338,60.1779087],[24.8156166,60.1783206],[24.8158226,60.1783228]]]}},
{"type":"Feature","properties":{"@id":"way/27309375","building":"yes"},"geometry":{"type":"Polygon","coordinates":[[[24.8327565,60.178197],[24.8327839,60.1780012],[24.8326489,60.1779368],[24.8323858,60.1778838],[24.832327,60.1779597],[24.8322218,60.1780912],[24.8327565,60.178197]]]}},
{"type":"Feature","properties":{"@id":"way/27462826","addr:housenumber":"4","addr:postcode":"02150","addr:street":"Kivimiehentie","building":"yes"},"geometry":{"type":"Polygon","coordinates":[[[24.8269001,60.1808042],[24.8269692,60.1810146],[24.826789,60.1812494],[24.8268637,60.1812643],[24.8267496,60.1814113],[24.8270283,60.1814638],[24.8270942,60.1813774],[24.8272525,60.181403],[24.8274218,60.1813339],[24.8276398,60.1813716],[24.8278841,60.1810346],[24.8275141,60.1809703],[24.8276888,60.1807203],[24.8270454,60.1806065],[24.8269001,60.1808042]]]}},
{"type":"Feature","properties":{"@id":"way/27463306","addr:housenumber":"2","addr:postcode":"02150","addr:street":"Kivimiehentie","building":"yes","name":"Raja- ja merivartiokoulu"},"geometry":{"type":"Polygon","coordinates":[[[24.8280695,60.1799633],[24.8276818,60.1798981],[24.8280152,60.1793861],[24.8285288,60.1794686],[24.8286175,60.1793367],[24.8277545,60.1792069],[24.8273744,60.1797838],[24.8275522,60.1798156],[24.8273658,60.1800918],[24.8276123,60.1801333],[24.8276944,60.1800095],[24.8279968,60.1800626],[24.8280695,60.1799633]]]}},
{"type":"Feature","properties":{"@id":"way/27464085","addr:housenumber":"6,8","addr:postcode":"02150","addr:street":"Metallimiehenkuja 10","amenity":"university","building":"yes","int_name":"Aalto ACE","name":"Aalto ACE"},"geometry":{"type":"Polygon","coordinates":[[[24.829752,60.1830953],[24.8298677,60.1830237],[24.8300333,60.1831008],[24.8301891,60.183018],[24.830402,60.1831038],[24.8306851,60.1829534],[24.8299047,60.1825903],[24.8296217,60.1827407],[24.8297576,60.1828173],[24.8294333,60.1829435],[24.8293362,60.1828983],[24.8291522,60.1829961],[24.8300332,60.183406],[24.8302136,60.1833101],[24.829752,60.1830953]]]}},
{"type":"Feature","properties":{"@id":"way/27464438","addr:housenumber":"10","addr:postcode":"02150","addr:street":"Metallimiehenkuja","building":"yes"},"geometry":{"type":"Polygon","coordinates":[[[24.8301258,60.1823381],[24.8299639,60.1824237],[24.8304649,60.1826578],[24.8306267,60.1825722],[24.8301258,60.1823381]]]}},
{"type":"Feature","properties":{"@id":"way/27464447","addr:housenumber":"5","addr:postcode":"02150","addr:street":"Vuorimiehentie","amenity":"university","building":"yes"},"geometry":{"type":"Polygon","coordinates":[[[24.8279134,60.1824956],[24.8280164,60.1825511],[24.827709,60.1826975],[24.8284681,60.1830792],[24.8286624,60.1829851],[24.8281758,60.1827404],[24.8284341,60.1826171],[24.8284994,60.1826489],[24.828643,60.1825758],[24.8285778,60.1825441],[24.8289691,60.182342],[24.8284986,60.1821173],[24.8282224,60.1822609],[24.8282872,60.1822938],[24.8279134,60.1824956]]]}},
{"type":"Feature","properties":{"@id":"way/27468037","addr:housenumber":"8","building":"yes"},"geometry":{"type":"Polygon","coordinates":[[[24.8301437,60.1811702],[24.8302535,60.1810365],[24.8301431,60.1810141],[24.8300333,60.1811478],[24.8301437,60.1811702]]]}},
{"type":"Feature","properties":{"@id":"way/27468341","building":"yes"},"geometry":{"type":"Polygon","coordinates":[[[24.8296461,60.1814394],[24.8297376,60.181311],[24.8295855,60.1812842],[24.829494,60.1814126],[24.8296461,60.1814394]]]}},
{"type":"Feature","properties":{"@id":"way/27468535","building":"yes"},"geometry":{"type":"Polygon","coordinates":[[[24.8307622,60.1800191],[24.8308962,60.1800422],[24.8311629,60.1796408],[24.8310211,60.1796181],[24.8307622,60.1800191]]]}},
{"type":"Feature","properties":{"@id":"way/27468640","addr:housenumber":"3","addr:postcode":"02150","addr:street":"Miestentie","building":"yes","int_name":"Aalto Architecture","name":"Aalto Arkkitehtuuri"},"geometry":{"type":"Polygon","coordinates":[[[24.8288263,60.1781413],[24.8286615,60.1784284],[24.8288783,60.1784882],[24.8287687,60.1786866],[24.8288033,60.1787143],[24.8291971,60.1787683],[24.8295133,60.1782026],[24.8289093,60.178116],[24.8288263,60.1781413]]]}},
{"type":"Feature","properties":{"@id":"way/27468705","building":"yes","created_by":"Potlatch 0.10d"},"geometry":{"type":"Polygon","coordinates":[[[24.8281147,60.1780017],[24.8281739,60.178163],[24.8280056,60.178458],[24.8281873,60.1784838],[24.8280951,60.1786293],[24.828221,60.1786471],[24.8285411,60.178083],[24.8281147,60.1780017]]]}},
{"type":"Feature","properties":{"@id":"way/27468731","building":"yes"},"geometry":{"type":"Polygon","coordinates":[[[24.8291387,60.1788706],[24.8288921,60.1788372],[24.8288649,60.1788868],[24.8291097,60.1789183],[24.8291387,60.1788706]]]}},
{"type":"Feature","properties":{"@id":"way/27469236","addr:housenumber":"3","building":"yes"},"geometry":{"type":"Polygon","coordinates":[[[24.8283016,60.1810445],[24.828235,60.1811318],[24.828377,60.1811586],[24.8284435,60.1810713],[24.8283016,60.1810445]]]}},
{"type":"Feature","properties":{"@id":"way/27474302","building":"yes"},"geometry":null},
{"type":"Feature","properties":{"@id":"way/27480264","addr:housenumber":"3","addr:postcode":"02150","addr:street":"Vuorimiehentie","amenity":"university","building":"yes"},"geometry":{"type":"Polygon","coordinates":[[[24.8271486,60.1826165],[24.8273099,60.18253],[24.8270197,60.1823962],[24.8272155,60.1822912],[24.8262531,60.1818474],[24.8260497,60.1819564],[24.825848,60.1818634],[24.8256838,60.1819514],[24.8258855,60.1820444],[24.825749,60.1821177],[24.8255565,60.1820289],[24.8254799,60.18207],[24.8266348,60.1826026],[24.8268584,60.1824827],[24.8271486,60.1826165]]]}},
{"type":"Feature","properties":{"@id":"way/27480270","addr:housenumber":"13","building":"yes","created_by":"Potlatch 0.10c"},"geometry":{"type":"Polygon","coordinates":[[[24.8172666,60.1829375],[24.8182427,60.1830142],[24.81832,60.182771],[24.8173439,60.1826943],[24.8172666,60.1829375]]]}},
{"type":"Feature","properties":{"@id":"way/27480273","building":"mansion","name":"Hagalundin kartano","start_date":"before 1872"},"geometry":{"type":"Polygon","coordinates":[[[24.8203265,60.1824547],[24.8203045,60.1823543],[24.819929,60.1823166],[24.8198889,60.1823959],[24.8203265,60.1824547]]]}},
{"type":"Feature","properties":{"@id":"way/27480274","building":"yes","start_date":"before 1872"},"geometry":{"type":"Polygon","coordinates":[[[24.8209688,60.182752],[24.8210172,60.1824847],[24.8208298,60.1824722],[24.8207705,60.1827432],[24.8209688,60.182752]]]}},
{"type":"Feature","properties":{"@id":"way/27480459","addr:housenumber":"11","addr:postcode":"02150","addr:street":"Tekniikantie","building":"detached"},"geometry":{"type":"Polygon","coordinates":[[[24.8194276,60.1819317],[24.8191835,60.181919],[24.8191298,60.1819991],[24.8194104,60.1820137],[24.8194276,60.1819317]]]}},
{"type":"Feature","properties":{"@id":"way/27480460","building":"detached","created_by":"Potlatch 0.10c"},"geometry":null},
{"type":"Feature","properties":{"@id":"way/27480467","building":"detached"},"geometry":{"type":"Polygon","coordinates":[[[24.8187943,60.1829237],[24.8184784,60.1829791],[24.8185367,60.1830613],[24.8188526,60.183006],[24.8187943,60.1829237]]]}},
{"type":"Feature","properties":{"@id":"way/27480468","building":"detached"},"geometry":{"type":"Polygon","coordinates":[[[24.819287,60.182794],[24.8189712,60.1828494],[24.8190295,60.1829316],[24.8193453,60.1828763],[24.819287,60.182794]]]}},
{"type":"Feature","properties":{"@id":"way/27480473","building":"detached","created_by":"Potlatch 0.10c"},"geometry":null},
{"type":"Feature","properties":{"@id":"way/27480485","building":"detached"},"geometry":{"type":"Polygon","coordinates":[[[24.8190753,60.1823249],[24.819345,60.1823387],[24.8193632,60.1822506],[24.8190936,60.1822368],[24.8190753,60.1823249]]]}},
{"type":"Feature","properties":{"@id":"way/27480486","building":"detached","created_by":"Potlatch 0.10c"},"geometry":null},
{"type":"Feature","properties":{"@id":"way/27480487","building":"detached","created_by":"Potlatch 0.10c"},"geometry":null},
{"type":"Feature","properties":{"@id":"way/27480488","building":"detached"},"geometry":{"type":"Polygon","coordinates":[[[24.8190179,60.1825998],[24.8192875,60.1826136],[24.8193058,60.1825255],[24.8190362,60.1825117],[24.8190179,60.1825998]]]}},
{"type":"Feature","properties":{"@id":"way/27480489","building":"detached","created_by":"Potlatch 0.10c"},"geometry":null},
{"type":"Feature","properties":{"@id":"way/27480490","building":"detached"},"geometry":{"type":"Polygon","coordinates":[[[24.8185679,60.1827103],[24.8188782,60.1827317],[24.8189028,60.182644],[24.8186438,60.1826121],[24.8185679,60.1827103]]]}},
{"type":"Feature","properties":{"@id":"way/27480491","building":"detached","created_by":"Potlatch 0.10c"},"geometry":null},
{"type":"Feature","properties":{"@id":"way/27480492","building":"detached"},"geometry":{"type":"Polygon","coordinates":[[[24.8186544,60.1824364],[24.8189639,60.1824609],[24.8189919,60.1823735],[24.8187342,60.182339],[24.8186544,60.1824364]]]}},
{"type":"Feature","properties":{"@id":"way/27480493","building":"detached","created_by":"Potlatch 0.10c"},"geometry":null},
{"type":"Feature","properties":{"@id":"way/27480494","building":"detached"},"geometry":{"type":"Polygon","coordinates":[[[24.8187409,60.1821653],[24.8190086,60.1821865],[24.819,60.1820821],[24.8187689,60.1820779],[24.8187409,60.1821653]]]}},
{"type":"Feature","properties":{"@id":"way/27492341","addr:housenumber":"4","addr:postcode":"02150","addr:street":"Betonimiehenkuja","alt_name":"Geologiska forskningscentralen","building":"yes","int_name":"Geological Survey of Finland","name":"Geologian tutkimuskeskus"},"geometry":{"type":"Polygon","coordinates":[[[24.8293394,60.1799915],[24.8291824,60.179964],[24.8291036,60.1800752],[24.8293008,60.1801097],[24.8290976,60.1803963],[24.8292202,60.1804178],[24.8295411,60.1799651],[24.829735,60.1799709],[24.8296116,60.1801592],[24.8303523,60.1802821],[24.8301048,60.1806141],[24.8302155,60.1806622],[24.830422,60.1806715],[24.8306371,60.1803779],[24.8310174,60.1804468],[24.8311719,60.1802372],[24.8309026,60.1801855],[24.8308339,60.1802761],[24.8307263,60.1802561],[24.8308251,60.1801213],[24.8305005,60.1800685],[24.8304417,60.1801479],[24.8298904,60.1800545],[24.8299358,60.1799397],[24.8301435,60.1796197],[24.8296145,60.1795339],[24.829428,60.1798186],[24.8292885,60.1797941],[24.8292008,60.1799055],[24.8293783,60.1799366],[24.8293394,60.1799915]]]}},
{"type":"Feature","properties":{"@id":"way/27554482","FIXME":"tarkenna sijaintia","addr:housenumber":"21","addr:postcode":"02150","addr:street":"Keilaranta","building":"yes","building:material":"glass"},"geometry":{"type":"Polygon","coordinates":[[[24.8366438,60.1790987],[24.8368873,60.1779525],[24.8361415,60.1779133],[24.8360962,60.1781265],[24.8364889,60.1781471],[24.8364493,60.1783331],[24.8360415,60.1783117],[24.8359973,60.1785199],[24.8363815,60.17854],[24.8363462,60.1787065],[24.8359644,60.1786864],[24.8359121,60.1789326],[24.8361758,60.1789464],[24.8361027,60.179353],[24.836845,60.179392],[24.8368204,60.1795081],[24.8373228,60.1795345],[24.8373563,60.1793766],[24.837675,60.1793934],[24.8376414,60.1795512],[24.8380772,60.1795741],[24.8381537,60.179214],[24.8366365,60.1791343],[24.8366438,60.1790987]]]}},
{"type":"Feature","properties":{"@id":"way/27554911","addr:housenumber":"1","addr:postcode":"02150","addr:street":"Miestentie","building":"yes"},"geometry":{"type":"Polygon","coordinates":[[[24.8281739,60.178163],[24.8281147,60.1780017],[24.8278369,60.1781219],[24.8272987,60.1780303],[24.8265307,60.1783775],[24.8263694,60.1784223],[24.8266509,60.1785022],[24.8271907,60.1782521],[24.8273364,60.1781517],[24.8276436,60.1782045],[24.8276041,60.1782918],[24.8274426,60.1783843],[24.8276658,60.1784199],[24.8280642,60.1782438],[24.8281739,60.178163]]]}},
{"type":"Feature","properties":{"@id":"way/27602731","building":"yes","source":"Bing"},"geometry":null},
{"type":"Feature","properties":{"@id":"way/27603148","building":"yes"},"geometry":{"type":"Polygon","coordinates":[[[24.8166079,60.1841386],[24.8167701,60.184095],[24.8170438,60.1837654],[24.8164859,60.1836588],[24.8162999,60.1838976],[24.8161486,60.1840303],[24.8163563,60.184171],[24.8166079,60.1841386]]]}},
{"type":"Feature","properties":{"@id":"way/27603149","addr:housenumber":"6","addr:postcode":"02150","addr:street":"Tietotie","building":"yes"},"geometry":{"type":"Polygon","coordinates":[[[24.8174648,60.183691],[24.8174546,60.1837259],[24.8186809,60.1838215],[24.8186281,60.183972],[24.8176231,60.1838909],[24.8176587,60.1837757],[24.8173408,60.1837531],[24.8173052,60.1838683],[24.8170268,60.1838431],[24.8169777,60.1839567],[24.8171004,60.183972],[24.8170109,60.1842144],[24.818199,60.1843177],[24.8182162,60.1842708],[24.8187655,60.184322],[24.8187998,60.1842281],[24.8189114,60.1841854],[24.8194425,60.1842281],[24.8194274,60.1842761],[24.819666,60.1842943],[24.8197697,60.183972],[24.8198641,60.183972],[24.8199156,60.1837928],[24.8176777,60.1836037],[24.8176487,60.1837037],[24.8174648,60.183691]]]}},
{"type":"Feature","properties":{"@id":"way/27930945","amenity":"university","building":"yes","guard:operator":"Securitas","int_name":"Aalto Nanophysics lab","internet_access":"wlan","name":"Aalto Nanotalo"},"geometry":{"type":"Polygon","coordinates":[[[24.8263273,60.1867662],[24.826187,60.1866442],[24.8260491,60.1866834],[24.8259693,60.186614],[24.8252067,60.1868307],[24.8251362,60.1867694],[24.8253586,60.1867062],[24.8252728,60.1866316],[24.8250781,60.1866869],[24.8249784,60.1866002],[24.8250793,60.1865715],[24.8249098,60.1864241],[24.8244223,60.1865755],[24.8235241,60.1868308],[24.8237018,60.1869853],[24.8241898,60.1868466],[24.8241466,60.186809],[24.8245597,60.1866915],[24.8246879,60.186803],[24.8242068,60.1869398],[24.8242594,60.1869855],[24.8238613,60.1870986],[24.8241807,60.1873764],[24.8263273,60.1867662]]]}},
{"type":"Feature","properties":{"@id":"way/28364212","addr:housenumber":"4","addr:street":"Vuorimiehenpolku","building":"yes"},"geometry":{"type":"Polygon","coordinates":[[[24.8267641,60.1819197],[24.8269032,60.1819841],[24.8269666,60.1819502],[24.8268275,60.1818858],[24.8267641,60.1819197]]]}},
{"type":"Feature","properties":{"@id":"way/29012757","addr:city":"Espoo","addr:country":"FI","addr:housenumber":"17","addr:street":"Otaniementie","amenity":"university","building":"yes","int_name":"Aalto TUAS House","internet_access":"wlan","name":"Aalto TUAS-talo","start_date":"2003"},"geometry":{"type":"Polygon","coordinates":[[[24.8174188,60.1870289],[24.817364,60.1870992],[24.8174349,60.1873012],[24.8185116,60.1871995],[24.8184617,60.1873432],[24.8185104,60.1874633],[24.8191404,60.1873914],[24.8191897,60.1874951],[24.8198166,60.1874199],[24.8197704,60.1873255],[24.8200002,60.1872951],[24.8200405,60.1873857],[24.8202364,60.1873604],[24.8201384,60.1871379],[24.8201962,60.1871319],[24.8200799,60.18684],[24.8194901,60.1868937],[24.8194613,60.1868155],[24.8191474,60.1868656],[24.8174188,60.1870289]]]}},
{"type":"Feature","properties":{"@id":"way/30617211","building":"yes"},"geometry":{"type":"Polygon","coordinates":[[[24.8289524,60.1817742],[24.8291622,60.1817529],[24.8291451,60.181711],[24.8289374,60.181732],[24.8289524,60.1817742]]]}},
{"type":"Feature","properties":{"@id":"way/31855189","addr:housenumber":"12","addr:street":"Kimmeltie","building":"yes"},"geometry":{"type":"Polygon","coordinates":[[[24.8178159,60.1808375],[24.8179545,60.180854],[24.8179943,60.1807714],[24.8178557,60.1807549],[24.8178159,60.1808375]]]}},
{"type":"Feature","properties":{"@id":"way/31855190","addr:housenumber":"14","addr:street":"Kimmeltie","building":"yes"},"geometry":{"type":"Polygon","coordinates":[[[24.8174712,60.1810539],[24.8176212,60.1810499],[24.8176122,60.1809665],[24.8174621,60.1809706],[24.8174712,60.1810539]]]}},
{"type":"Feature","properties":{"@id":"way/31855193","addr:housenumber":"16","addr:street":"Kimmeltie","building":"yes"},"geometry":{"type":"Polygon","coordinates":[[[24.8171725,60.1811835],[24.8174042,60.1811858],[24.817408,60.1810918],[24.8171764,60.1810895],[24.8171725,60.1811835]]]}},
{"type":"Feature","properties":{"@id":"way/31855196","building":"yes","source":"Bing"},"geometry":{"type":"Polygon","coordinates":[[[24.816649,60.181363],[24.8169355,60.1813279],[24.8168993,60.1812549],[24.8166128,60.18129],[24.816649,60.181363]]]}},
{"type":"Feature","properties":{"@id":"way/31855200","building":"terrace"},"geometry":{"type":"Polygon","coordinates":[[[24.815908,60.1815015],[24.8161056,60.1814771],[24.8159302,60.181126],[24.8157327,60.1811504],[24.815908,60.1815015]]]}},
{"type":"Feature","properties":{"@id":"way/33997856","building":"shed"},"geometry":{"type":"Polygon","coordinates":[[[24.8341381,60.1870151],[24.8340441,60.1871305],[24.834188,60.1871594],[24.8342819,60.1870441],[24.8341381,60.1870151]]]}},
{"type":"Feature","properties":{"@id":"way/36328648","addr:housenumber":"4","addr:postcode":"02150","addr:street":"Tekniikantie","building":"yes","building:colour":"red","building:levels":"6"},"geometry":{"type":"Polygon","coordinates":[[[24.8200656,60.1808514],[24.8202516,60.1810135],[24.82054,60.1809039],[24.8206839,60.1809976],[24.8209378,60.1809011],[24.8207939,60.1808074],[24.821054,60.1807086],[24.8207987,60.1805729],[24.8205498,60.1806675],[24.8206537,60.1807351],[24.8204109,60.1808273],[24.8203071,60.1807597],[24.8200656,60.1808514]]]}},
{"type":"Feature","properties":{"@id":"way/36328659","addr:housenumber":"2","addr:postcode":"02150","addr:street":"Tekniikantie","building":"yes"},"geometry":{"type":"Polygon","coordinates":[[[24.8226729,60.1807281],[24.8228927,60.1807611],[24.8231825,60.1802829],[24.8231846,60.1802361],[24.8239024,60.1803437],[24.8239924,60.1801952],[24.8231151,60.1800637],[24.8230624,60.1801507],[24.8222414,60.1800277],[24.8221502,60.1801782],[24.8229349,60.1802958],[24.8226729,60.1807281]]]}},
{"type":"Feature","properties":{"@id":"way/36328661","addr:housenumber":"2","addr:postcode":"02150","addr:street":"Tekniikantie","building":"yes"},"geometry":{"type":"Polygon","coordinates":[[[24.8240058,60.1803018],[24.824353,60.1803236],[24.8245344,60.1800065],[24.8242104,60.1799443],[24.8240058,60.1803018]]]}},
{"type":"Feature","properties":{"@id":"way/36328664","addr:housenumber":"2","addr:postcode":"02150","addr:street":"Tekniikanti","building":"yes"},"geometry":{"type":"Polygon","coordinates":[[[24.8226729,60.1807281],[24.8223474,60.1806518],[24.8222165,60.1808678],[24.8240494,60.1811424],[24.8241297,60.1810099],[24.8242311,60.1810251],[24.82442,60.1807133],[24.824547,60.1805502],[24.8234653,60.1803882],[24.8233674,60.1805499],[24.8231363,60.1805619],[24.8230054,60.1807779],[24.8228927,60.1807611],[24.8226729,60.1807281]]]}},
{"type":"Feature","properties":{"@id":"way/36328676","addr:housenumber":"4","addr:postcode":"02150","addr:street":"Tekniikantie ","building":"yes"},"geometry":{"type":"Polygon","coordinates":[[[24.822081,60.181591],[24.8224512,60.1816556],[24.8225899,60.181473],[24.8229637,60.1815438],[24.8230982,60.1813562],[24.8234776,60.1814271],[24.823611,60.1812323],[24.8234454,60.1811489],[24.8220452,60.1814705],[24.822081,60.181591]]]}},
{"type":"Feature","properties":{"@id":"way/36328879","building":"canopy"},"geometry":{"type":"Polygon","coordinates":[[[24.827237,60.1784247],[24.8271426,60.1783778],[24.8269366,60.1784674],[24.8270396,60.1785101],[24.827237,60.1784247]]]}},
{"type":"Feature","properties":{"@id":"way/36538548","addr:housenumber":"4","addr:postcode":"02150","addr:street":"Tekniikantie","building":"yes"},"geometry":{"type":"Polygon","coordinates":[[[24.8208757,60.1811309],[24.8221183,60.1813121],[24.822152,60.181175],[24.821007,60.1810081],[24.8208907,60.1811055],[24.8208757,60.1811309]]]}},
{"type":"Feature","properties":{"@id":"way/44049611","building":"yes"},"geometry":null},
{"type":"Feature","properties":{"@id":"way/53798428","addr:housenumber":"1","addr:postcode":"02150","addr:street":"Tekniikantie","building":"yes","name":"MIKES"},"geometry":{"type":"Polygon","coordinates":[[[24.8256498,60.1805005],[24.8263909,60.1806164],[24.8265621,60.1803458],[24.8256893,60.1802093],[24.8256135,60.1800973],[24.8254673,60.1800745],[24.8252174,60.1804696],[24.8256498,60.1805005]]]}},
{"type":"Feature","properties":{"@id":"way/80401757","building":"yes"},"geometry":null},
{"type":"Feature","properties":{"@id":"way/85481334","addr:housenumber":"5","addr:street":"Servin Maijan tie","building":"yes"},"geometry":null},
{"type":"Feature","properties":{"@id":"way/85513928","addr:housenumber":"5","building":"residential","building:levels":"1","start_date":"1952"},"geometry":{"type":"Polygon","coordinates":[[[24.8383311,60.1879167],[24.83833,60.187888],[24.8380334,60.1878904],[24.8380408,60.187919],[24.8383311,60.1879167]]]}},
{"type":"Feature","properties":{"@id":"way/85550712","building":"shed"},"geometry":null},
{"type":"Feature","properties":{"@id":"way/85550743","building":"shed"},"geometry":null},
{"type":"Feature","properties":{"@id":"way/85628796","building":"yes","building:levels":"1","start_date":"1966"},"geometry":{"type":"Polygon","coordinates":[[[24.8350377,60.1869973],[24.835011,60.1868921],[24.8347849,60.1868957],[24.8347938,60.1870359],[24.8350377,60.1869973]]]}},
{"type":"Feature","properties":{"@id":"way/86792321","addr:housenumber":"5","building":"yes","layer":"1","name":"Tatamisali","start_date":"1952"},"geometry":{"type":"Polygon","coordinates":[[[24.8377015,60.1877749],[24.8377127,60.187735],[24.8376608,60.1877317],[24.8376505,60.1877747],[24.8377015,60.1877749]]]}},
{"type":"Feature","properties":{"@id":"way/86792323","addr:housenumber":"5","building":"yes","building:type":"conference_room","layer":"1","name":"Dernecon","start_date":"1952"},"geometry":{"type":"Polygon","coordinates":[[[24.8376753,60.1876815],[24.8376608,60.1877317],[24.8377127,60.187735],[24.8377276,60.1876853],[24.8376753,60.1876815]]]}},
{"type":"Feature","properties":{"@id":"way/91227653","amenity":"university","building":"school","building:levels":"3.2","building:min_level":"3","building:part":"yes","int_name":"Aalto Panique Computer Lab","name":"Aalto Paniikki"},"geometry":{"type":"Polygon","coordinates":[[[24.8221329,60.1867998],[24.8220617,60.186809],[24.8221222,60.1869744],[24.8224537,60.1869349],[24.8224423,60.1869026],[24.8223976,60.1867789],[24.8221329,60.1867998]]]}},
{"type":"Feature","properties":{"@id":"way/91227662","amenity":"university","building":"school","building:levels":"3","building:min_level":"2","building:part":"yes","int_name":"Aalto Computer Science","name":"Aalto Tietotekniikka"},"geometry":{"type":"Polygon","coordinates":[[[24.8222782,60.1865828],[24.8217239,60.1867078],[24.8211387,60.1867604],[24.8210779,60.1867659],[24.8204964,60.1868181],[24.8204333,60.1868238],[24.8203009,60.1868357],[24.8203711,60.1869702],[24.8204691,60.1869622],[24.8206263,60.1873572],[24.8209968,60.1872991],[24.8209549,60.1872326],[24.821232,60.1871882],[24.8212885,60.1871792],[24.8218626,60.1870873],[24.8219186,60.1870783],[24.8225411,60.1869791],[24.8224423,60.1869026],[24.8223976,60.1867789],[24.8221329,60.1867998],[24.8220836,60.1867524],[24.822336,60.186716],[24.8222782,60.1865828]]]}},
{"type":"Feature","properties":{"@id":"way/97662456","amenity":"university","building":"school","building:levels":"1","building:part":"yes","int_name":"Aalto Maari","name":"Aalto Maarintalo"},"geometry":{"type":"Polygon","coordinates":[[[24.8257549,60.189548],[24.8269758,60.189157],[24.8267654,60.1889947],[24.8260954,60.1892229],[24.8260489,60.1891869],[24.8255086,60.189358],[24.8257549,60.189548]]]}},
{"type":"Feature","properties":{"@id":"way/129534140","addr:housenumber":"3","addr:postcode":"02150","addr:street":"Luolamiehentie","building":"yes"},"geometry":{"type":"Polygon","coordinates":[[[24.8331584,60.1843383],[24.8331129,60.1844345],[24.8334094,60.1844951],[24.8333512,60.1845933],[24.8335429,60.1846213],[24.8335438,60.1844736],[24.8336269,60.1843331],[24.8334098,60.1843013],[24.8333655,60.1843762],[24.8331584,60.1843383]]]}},
{"type":"Feature","properties":{"@id":"way/129693722","building":"yes"},"geometry":{"type":"Polygon","coordinates":[[[24.820819,60.1798808],[24.8208175,60.179734],[24.8205207,60.1797347],[24.8205206,60.1796067],[24.8204185,60.179607],[24.8204184,60.17951],[24.821078,60.1795105],[24.8211485,60.1794532],[24.821169,60.1792924],[24.8202142,60.1792925],[24.8202129,60.1795103],[24.8203336,60.17951],[24.8203346,60.1796067],[24.820224,60.1796072],[24.8202053,60.179732],[24.8200758,60.1798792],[24.8201292,60.1799258],[24.8207413,60.1799243],[24.820819,60.1798808]]]}},
{"type":"Feature","properties":{"@id":"way/129693783","addr:housenumber":"4","addr:postcode":"02150","addr:street":"Tekniikantie","building":"yes"},"geometry":{"type":"Polygon","coordinates":[[[24.8208757,60.1811309],[24.8208907,60.1811055],[24.8207433,60.181084],[24.8204313,60.1816132],[24.8206484,60.1816449],[24.8209172,60.1811891],[24.8208757,60.1811309]]]}},
{"type":"Feature","properties":{"@id":"way/130061808","building":"tank","source":"Bing"},"geometry":{"type":"Polygon","coordinates":[[[24.8270367,60.1883259],[24.827088,60.1884158],[24.8272653,60.188375],[24.8272139,60.1883076],[24.8270367,60.1883259]]]}},
{"type":"Feature","properties":{"@id":"way/131232174","building":"yes","start_date":"1971"},"geometry":{"type":"Polygon","coordinates":[[[24.8359205,60.1849827],[24.8366208,60.1849904],[24.836625,60.1848958],[24.8359248,60.184888],[24.8359205,60.1849827]]]}},
{"type":"Feature","properties":{"@id":"way/134101350","building":"yes","start_date":"before 1872"},"geometry":{"type":"Polygon","coordinates":[[[24.8198534,60.1820671],[24.8199123,60.1819565],[24.8197852,60.1819397],[24.8197263,60.1820503],[24.8198534,60.1820671]]]}},
{"type":"Feature","properties":{"@id":"way/138758725","building":"yes","indoor":"yes","level":"-1","name":"Gorsu","room":"sauna"},"geometry":{"type":"Polygon","coordinates":[[[24.8380542,60.1879706],[24.8380306,60.1878795],[24.8379034,60.1878875],[24.8379292,60.1879778],[24.8380542,60.1879706]]]}},
{"type":"Feature","properties":{"@id":"way/148219234","building":"residential","source":"Bing","start_date":"1952"},"geometry":{"type":"Polygon","coordinates":[[[24.8365957,60.1872899],[24.8366004,60.1873449],[24.8370506,60.1873398],[24.8370576,60.1872939],[24.8368967,60.1872892],[24.8365957,60.1872899]]]}},
{"type":"Feature","properties":{"@id":"way/148219235","building":"residential","source":"Bing","start_date":"1952"},"geometry":{"type":"Polygon","coordinates":[[[24.8361356,60.1871552],[24.8361465,60.1873466],[24.8362719,60.1873855],[24.8362615,60.1872637],[24.8362468,60.1871518],[24.8361356,60.1871552]]]}},
{"type":"Feature","properties":{"@id":"way/148683540","addr:city":"Espoo","addr:country":"FI","addr:housenumber":"19-21","addr:postcode":"02150","addr:street":"Otaniementie","building":"yes","name":"Open Innovation House"},"geometry":{"type":"Polygon","coordinates":[[[24.8163312,60.1872158],[24.8162966,60.1871272],[24.8160759,60.1871485],[24.8161039,60.1872201],[24.8158772,60.187242],[24.815849,60.1871699],[24.8156341,60.1871907],[24.8156622,60.1872624],[24.815428,60.1872851],[24.8153997,60.1872126],[24.8151824,60.1872336],[24.8152105,60.1873056],[24.8149823,60.1873276],[24.8149544,60.1872564],[24.8147369,60.1872774],[24.8147643,60.1873476],[24.8145457,60.1873687],[24.8145182,60.1872984],[24.8142896,60.1873204],[24.8143245,60.1874096],[24.8142142,60.1874202],[24.8142686,60.1875594],[24.8165103,60.1873429],[24.816456,60.1872038],[24.8163312,60.1872158]]]}},
{"type":"Feature","properties":{"@id":"way/156903276","EPC:class":"E","addr:housenumber":"4","addr:street":"Otakaari","alt_name":"Konetekniikka 1","amenity":"university","building":"yes","int_name":"Aalto University School of Engineering","internet_access":"wlan","name":"Aalto Konetekniikka 1","source":"Bing","start_date":"1966"},"geometry":{"type":"Polygon","coordinates":[[[24.8260875,60.1872349],[24.8264453,60.1875219],[24.8267484,60.1874745],[24.8266379,60.1873859],[24.8270475,60.1872597],[24.8274962,60.1876197],[24.8276812,60.1875628],[24.8277249,60.1874953],[24.8271214,60.1870111],[24.8268244,60.1871026],[24.8266595,60.1870092],[24.8263526,60.1871038],[24.8263971,60.1871395],[24.8260875,60.1872349]]]}},
{"type":"Feature","properties":{"@id":"way/156903282","amenity":"university","building":"yes","int_name":"Aalto Mechanical Engineering 2","name":"Aalto Konetekniikka 2","source":"Bing"},"geometry":{"type":"Polygon","coordinates":[[[24.8251193,60.1875049],[24.824941,60.1874936],[24.8247006,60.1875677],[24.8249622,60.1877776],[24.8250624,60.1877467],[24.8256882,60.1882486],[24.8259322,60.1881569],[24.8251193,60.1875049]]]}},
{"type":"Feature","properties":{"@id":"way/156903284","amenity":"university","building":"yes","int_name":"Aalto Mechanical Engineering 3","internet_access":"wlan","name":"Aalto Konetekniikka 3","source":"Bing"},"geometry":{"type":"Polygon","coordinates":[[[24.8238825,60.1879244],[24.8241027,60.1878765],[24.8246363,60.1883044],[24.8243711,60.1883861],[24.8240508,60.1881293],[24.8240071,60.1881427],[24.8238157,60.1879892],[24.8235555,60.1880694],[24.8237629,60.1882358],[24.8238179,60.1882188],[24.8245029,60.1887683],[24.8252735,60.1885308],[24.8242394,60.1877014],[24.8237806,60.1878428],[24.8238825,60.1879244]]]}},
{"type":"Feature","properties":{"@id":"way/158090283","building":"yes"},"geometry":null},
{"type":"Feature","properties":{"@id":"way/162185241","building":"yes","source":"Bing"},"geometry":{"type":"Polygon","coordinates":[[[24.8165179,60.1812049],[24.8166914,60.181175],[24.8166403,60.1811019],[24.8164669,60.1811318],[24.8165179,60.1812049]]]}},
{"type":"Feature","properties":{"@id":"way/162185243","building":"yes","source":"Bing"},"geometry":{"type":"Polygon","coordinates":[[[24.8147548,60.1807676],[24.8149228,60.1807094],[24.8148307,60.1806436],[24.8146627,60.1807018],[24.8147548,60.1807676]]]}},
{"type":"Feature","properties":{"@id":"way/162185244","addr:city":"Espoo","addr:housenumber":"10E","addr:street":"Mäntyviita","building":"yes","source":"survey"},"geometry":{"type":"Polygon","coordinates":[[[24.8146476,60.1813538],[24.8148579,60.1812714],[24.8147542,60.1812059],[24.8145439,60.1812883],[24.8146476,60.1813538]]]}},
{"type":"Feature","properties":{"@id":"way/162185246","addr:city":"Espoo","addr:housenumber":"10F","addr:street":"Mäntyviita","building":"yes","source":"survey"},"geometry":{"type":"Polygon","coordinates":[[[24.8150578,60.1814733],[24.8149669,60.181408],[24.8147417,60.1814854],[24.8148326,60.1815508],[24.8150578,60.1814733]]]}},
{"type":"Feature","properties":{"@id":"way/162185248","building":"yes","source":"Bing"},"geometry":{"type":"Polygon","coordinates":[[[24.8151128,60.180853],[24.8150187,60.1807875],[24.8148694,60.1808406],[24.8149635,60.1809061],[24.8151128,60.180853]]]}},
{"type":"Feature","properties":{"@id":"way/162185250","building":"yes","source":"Bing"},"geometry":{"type":"Polygon","coordinates":[[[24.8147024,60.1805591],[24.8146065,60.1804908],[24.8144503,60.1805451],[24.8145462,60.1806134],[24.8147024,60.1805591]]]}},
{"type":"Feature","properties":{"@id":"way/162185251","building":"yes","source":"Bing"},"geometry":{"type":"Polygon","coordinates":[[[24.8161972,60.1808477],[24.8164881,60.1807887],[24.8164246,60.1807303],[24.8161252,60.1807814],[24.8161972,60.1808477]]]}},
{"type":"Feature","properties":{"@id":"way/162185252","building":"yes","source":"Bing"},"geometry":{"type":"Polygon","coordinates":[[[24.8156737,60.1807427],[24.8158327,60.1806877],[24.8157222,60.1806087],[24.8155632,60.1806637],[24.8156737,60.1807427]]]}},
{"type":"Feature","properties":{"@id":"way/162185254","building":"yes","source":"Bing"},"geometry":{"type":"Polygon","coordinates":[[[24.8163581,60.1810281],[24.8165361,60.1809937],[24.8164793,60.1809209],[24.8163013,60.1809553],[24.8163581,60.1810281]]]}},
{"type":"Feature","properties":{"@id":"way/162185255","building":"yes","source":"Bing"},"geometry":{"type":"Polygon","coordinates":[[[24.8153701,60.1808879],[24.8155224,60.1808298],[24.8154274,60.1807682],[24.8152751,60.1808263],[24.8153701,60.1808879]]]}},
{"type":"Feature","properties":{"@id":"way/165347568","building":"yes"},"geometry":{"type":"Polygon","coordinates":[[[24.8195642,60.1816457],[24.8195067,60.1817271],[24.819652,60.1817525],[24.8197094,60.1816711],[24.8195642,60.1816457]]]}},
{"type":"Feature","properties":{"@id":"way/165539940","building":"yes","source":"bing"},"geometry":{"type":"Polygon","coordinates":[[[24.8163927,60.178788],[24.8163801,60.1788346],[24.8166051,60.1788497],[24.8166177,60.1788031],[24.8163927,60.178788]]]}},
{"type":"Feature","properties":{"@id":"way/177131849","addr:housenumber":"10","addr:postcode":"02150","addr:street":"Keilaranta","building":"yes"},"geometry":{"type":"Polygon","coordinates":[[[24.8342267,60.1784563],[24.8339045,60.178855],[24.8342526,60.1789245],[24.8345748,60.1785259],[24.8342267,60.1784563]]]}},
{"type":"Feature","properties":{"@id":"way/177131853","addr:housenumber":"9","addr:postcode":"02150","addr:street":"Miestentie","building":"yes"},"geometry":{"type":"Polygon","coordinates":[[[24.8313303,60.1788101],[24.8312131,60.1790515],[24.8312899,60.1790607],[24.8311992,60.1792477],[24.8318473,60.1793255],[24.8319523,60.1791091],[24.8316523,60.1790731],[24.8317001,60.1789746],[24.8313303,60.1788101]]]}},
{"type":"Feature","properties":{"@id":"way/181643549","addr:housename":"KOTA house","addr:housenumber":"4","addr:postcode":"02150","addr:street":"Otaranta","building":"yes"},"geometry":{"type":"Polygon","coordinates":[[[24.8361502,60.1844675],[24.8373179,60.1844826],[24.8373275,60.1842997],[24.8361598,60.1842845],[24.8361502,60.1844675]]]}},
{"type":"Feature","properties":{"@id":"way/181643550","building":"yes"},"geometry":{"type":"Polygon","coordinates":[[[24.8368433,60.1849725],[24.8372482,60.184977],[24.8372513,60.184908],[24.8368464,60.1849036],[24.8368433,60.1849725]]]}},
{"type":"Feature","properties":{"@id":"way/196833583","building":"yes","man_made":"works"},"geometry":null},
{"type":"Feature","properties":{"@id":"node/25468805","building":"entrance"},"geometry":null},
{"type":"Feature","properties":{"@id":"node/25530861","building:levels":"4","building:min_level":"3","building:part":"yes"},"geometry":null},
{"type":"Feature","properties":{"@id":"node/25530896","hazard":"emr"},"geometry":null},
{"type":"Feature","properties":{"@id":"node/57240233","building":"entrance","entrance":"yes","name":"Aalto yliopiston Otaniemen kampuksen päärakennus, pääsisäänkäynti"},"geometry":null},
{"type":"Feature","properties":{"@id":"node/166116009","name":"Finnzymes"},"geometry":null},
{"type":"Feature","properties":{"@id":"node/166116016","name":"Rintekno"},"geometry":null},
{"type":"Feature","properties":{"@id":"node/166116025","name":"CSC"},"geometry":null},
{"type":"Feature","properties":{"@id":"node/166116027","name":"Huhtamäki"},"geometry":null},
{"type":"Feature","properties":{"@id":"node/263964909","addr:city":"Espoo","addr:country":"FI","amenity":"atm","name":"Otto","postal_code":"02150","source":"survey"},"geometry":null},
{"type":"Feature","properties":{"@id":"node/264070011","building":"entrance"},"geometry":null},
{"type":"Feature","properties":{"@id":"node/264070015","building":"entrance","exit:hours":"24 h","opening_hours":"Mo-Fr 08:00-16:00"},"geometry":null},
{"type":"Feature","properties":{"@id":"node/264070022","building":"entrance"},"geometry":null},
{"type":"Feature","properties":{"@id":"node/289113873","building":"entrance"},"geometry":null},
{"type":"Feature","properties":{"@id":"node/299447493","building":"entrance","ref":"M"},"geometry":null},
{"type":"Feature","properties":{"@id":"node/299447502","access":"permissive","building":"entrance"},"geometry":null},
{"type":"Feature","properties":{"@id":"node/299447504","building":"entrance"},"geometry":null},
{"type":"Feature","properties":{"@id":"node/299449721","building":"entrance"},"geometry":null},
{"type":"Feature","properties":{"@id":"node/299769845","access":"private","building":"entrance"},"geometry":null},
{"type":"Feature","properties":{"@id":"node/301538960","building":"entrance"},"geometry":null},
{"type":"Feature","properties":{"@id":"node/301543657","building":"entrance","ref":"B"},"geometry":null},
{"type":"Feature","properties":{"@id":"node/301544303","building":"entrance"},"geometry":null},
{"type":"Feature","properties":{"@id":"node/301546950","building":"entrance"},"geometry":null},
{"type":"Feature","properties":{"@id":"node/301551069","building":"entrance","ref":"F"},"geometry":null},
{"type":"Feature","properties":{"@id":"node/301559910","building":"entrance","ref":"A"},"geometry":null},
{"type":"Feature","properties":{"@id":"node/301605463","addr:housenumber":"5","entrance":"yes"},"geometry":null},
{"type":"Feature","properties":{"@id":"node/301606842","entrance":"service"},"geometry":null},
{"type":"Feature","properties":{"@id":"node/301607263","entrance":"service"},"geometry":null},
{"type":"Feature","properties":{"@id":"node/301607972","building":"entrance"},"geometry":null},
{"type":"Feature","properties":{"@id":"node/301609066","building":"entrance"},"geometry":null},
{"type":"Feature","properties":{"@id":"node/301610572","building":"entrance"},"geometry":null},
{"type":"Feature","properties":{"@id":"node/301612305","building":"entrance","wheelchair":"no"},"geometry":null},
{"type":"Feature","properties":{"@id":"node/301612572","building":"entrance"},"geometry":null},
{"type":"Feature","properties":{"@id":"node/301614393","building":"entrance"},"geometry":null},
{"type":"Feature","properties":{"@id":"node/301614933","building":"entrance"},"geometry":null},
{"type":"Feature","properties":{"@id":"node/301669290","building":"entrance"},"geometry":null},
{"type":"Feature","properties":{"@id":"node/301670848","building":"entrance"},"geometry":null},
{"type":"Feature","properties":{"@id":"node/301704444","man_made":"surveillance"},"geometry":null},
{"type":"Feature","properties":{"@id":"node/301710188","building":"entrance"},"geometry":null},
{"type":"Feature","properties":{"@id":"node/301711537","building":"entrance"},"geometry":null},
{"type":"Feature","properties":{"@id":"node/301712334","amenity":"parking","building":"entrance","parking":"multi-storey"},"geometry":null},
{"type":"Feature","properties":{"@id":"node/301712926","building":"entrance"},"geometry":null},
{"type":"Feature","properties":{"@id":"node/301713738","building":"entrance","ref":"E;F"},"geometry":null},
{"type":"Feature","properties":{"@id":"node/301717938","building":"entrance"},"geometry":null},
{"type":"Feature","properties":{"@id":"node/301799185","building":"entrance"},"geometry":null},
{"type":"Feature","properties":{"@id":"node/301799186","building":"entrance"},"geometry":null},
{"type":"Feature","properties":{"@id":"node/301802299","building":"entrance"},"geometry":null},
{"type":"Feature","properties":{"@id":"node/301812248","building":"entrance","opening_hours":"Mo-Fr 08:00-16:00","ref":"A"},"geometry":null},
{"type":"Feature","properties":{"@id":"node/301813625","building":"entrance","ref":"L"},"geometry":null},
{"type":"Feature","properties":{"@id":"node/301813628","building":"entrance"},"geometry":null},
{"type":"Feature","properties":{"@id":"node/301814758","building":"entrance"},"geometry":null},
{"type":"Feature","properties":{"@id":"node/301814925","building":"entrance"},"geometry":null},
{"type":"Feature","properties":{"@id":"node/301817314","building":"entrance","ref":"E"},"geometry":null},
{"type":"Feature","properties":{"@id":"node/301817723","building":"entrance"},"geometry":null},
{"type":"Feature","properties":{"@id":"node/301875084","building":"entrance"},"geometry":null},
{"type":"Feature","properties":{"@id":"node/302493783","building":"entrance"},"geometry":null},
{"type":"Feature","properties":{"@id":"node/302498593","addr:housenumber":"13"},"geometry":null},
{"type":"Feature","properties":{"@id":"node/302498599","addr:housenumber":"15"},"geometry":null},
{"type":"Feature","properties":{"@id":"node/303099817","building":"entrance"},"geometry":null},
{"type":"Feature","properties":{"@id":"node/303099821","building":"entrance","ref":"A"},"geometry":null},
{"type":"Feature","properties":{"@id":"node/303102494","access":"private","amenity":"waste_disposal"},"geometry":null},
{"type":"Feature","properties":{"@id":"node/303105398","building":"entrance"},"geometry":null},
{"type":"Feature","properties":{"@id":"node/303111817","building":"entrance"},"geometry":null},
{"type":"Feature","properties":{"@id":"node/304974922","building":"entrance"},"geometry":null},
{"type":"Feature","properties":{"@id":"node/314923083","building":"entrance"},"geometry":null},
{"type":"Feature","properties":{"@id":"node/319075623","access":"private","building":"entrance"},"geometry":null},
{"type":"Feature","properties":{"@id":"node/319077832","access":"private","building":"entrance"},"geometry":null},
{"type":"Feature","properties":{"@id":"node/319079336","building":"entrance","entrance":"main"},"geometry":null},
{"type":"Feature","properties":{"@id":"node/330026233","building":"entrance"},"geometry":null},
{"type":"Feature","properties":{"@id":"node/338531789","building":"entrance"},"geometry":null},
{"type":"Feature","properties":{"@id":"node/338531790","building":"entrance"},"geometry":null},
{"type":"Feature","properties":{"@id":"node/338532521","building":"entrance"},"geometry":null},
{"type":"Feature","properties":{"@id":"node/338534354","building":"entrance"},"geometry":null},
{"type":"Feature","properties":{"@id":"node/338534555","building":"entrance"},"geometry":null},
{"type":"Feature","properties":{"@id":"node/338537204","building":"entrance"},"geometry":null},
{"type":"Feature","properties":{"@id":"node/338537520","building":"entrance"},"geometry":null},
{"type":"Feature","properties":{"@id":"node/338542754","building":"entrance","ref":"C"},"geometry":null},
{"type":"Feature","properties":{"@id":"node/344911051","building":"entrance"},"geometry":null},
{"type":"Feature","properties":{"@id":"node/348028311","building":"entrance"},"geometry":null},
{"type":"Feature","properties":{"@id":"node/357920696","access":"private","building":"entrance"},"geometry":null},
{"type":"Feature","properties":{"@id":"node/560097715","building":"entrance"},"geometry":null},
{"type":"Feature","properties":{"@id":"node/569956681","building":"entrance","entrance":"yes"},"geometry":null},
{"type":"Feature","properties":{"@id":"node/569957326","building":"entrance"},"geometry":null},
{"type":"Feature","properties":{"@id":"node/767302067","building":"entrance"},"geometry":null},
{"type":"Feature","properties":{"@id":"node/977658743","building":"entrance"},"geometry":null},
{"type":"Feature","properties":{"@id":"node/992438000","building":"entrance","ref":"A"},"geometry":null},
{"type":"Feature","properties":{"@id":"node/1009685631","building":"entrance"},"geometry":null},
{"type":"Feature","properties":{"@id":"node/1009685735","building":"entrance"},"geometry":null},
{"type":"Feature","properties":{"@id":"node/1009685780","building":"entrance"},"geometry":null},
{"type":"Feature","properties":{"@id":"node/1009685809","building":"entrance"},"geometry":null},
{"type":"Feature","properties":{"@id":"node/1058894166","building":"entrance"},"geometry":null},
{"type":"Feature","properties":{"@id":"node/1129366698","building:levels":"4","building:min_level":"3","building:part":"yes"},"geometry":null},
{"type":"Feature","properties":{"@id":"node/1161239368","building":"entrance"},"geometry":null},
{"type":"Feature","properties":{"@id":"node/1290212643","building":"entrance","ref":"Z"},"geometry":null},
{"type":"Feature","properties":{"@id":"node/1428976437","entrance":"yes"},"geometry":null},
{"type":"Feature","properties":{"@id":"node/1433646676","entrance":"main","name":"Käpyovi"},"geometry":null},
{"type":"Feature","properties":{"@id":"node/1433646855","building":"entrance","ref":"L"},"geometry":null},
{"type":"Feature","properties":{"@id":"node/1487283864","entrance":"emergency"},"geometry":null},
{"type":"Feature","properties":{"@id":"node/1487283869","entrance":"emergency"},"geometry":null},
{"type":"Feature","properties":{"@id":"node/1487283877","entrance":"emergency"},"geometry":null},
{"type":"Feature","properties":{"@id":"node/1487283884","entrance":"service"},"geometry":null},
{"type":"Feature","properties":{"@id":"node/1487283892","entrance":"emergency"},"geometry":null},
{"type":"Feature","properties":{"@id":"node/1524961800","building":"entrance","ref":"A"},"geometry":null},
{"type":"Feature","properties":{"@id":"node/1596351627","entrance":"side"},"geometry":null},
{"type":"Feature","properties":{"@id":"node/1596351631","entrance":"yes"},"geometry":null},
{"type":"Feature","properties":{"@id":"node/1596541330","entrance":"side"},"geometry":null},
{"type":"Feature","properties":{"@id":"node/1610326467","building":"entrance"},"geometry":null},
{"type":"Feature","properties":{"@id":"node/1610326469","building":"entrance"},"geometry":null},
{"type":"Feature","properties":{"@id":"node/1610326471","building":"entrance"},"geometry":null},
{"type":"Feature","properties":{"@id":"node/1613219485","building":"entrance"},"geometry":null},
{"type":"Feature","properties":{"@id":"node/1642351706","access":"private","building":"entrance"},"geometry":null},
{"type":"Feature","properties":{"@id":"node/1691532053","building":"entrance"},"geometry":null},
{"type":"Feature","properties":{"@id":"node/1893851702","entrance":"staircase","ref":"F"},"geometry":null},
{"type":"Feature","properties":{"@id":"node/1893851705","entrance":"staircase","ref":"E"},"geometry":null},
{"type":"Feature","properties":{"@id":"node/1893851711","entrance":"staircase","ref":"D"},"geometry":null},
{"type":"Feature","properties":{"@id":"node/1893851712","entrance":"staircase","ref":"C"},"geometry":null},
{"type":"Feature","properties":{"@id":"node/1893851713","entrance":"staircase","ref":"B"},"geometry":null},
{"type":"Feature","properties":{"@id":"node/1893851715","entrance":"staircase","ref":"A"},"geometry":null},
{"type":"Feature","properties":{"@id":"node/2071833548","addr:housenumber":"3","entrance":"main"},"geometry":null},
{"type":"Feature","properties":{"@id":"node/2375427439","building":"entrance","entrance":"main"},"geometry":null},
{"type":"Feature","properties":{"@id":"node/2476428715","entrance":"main","name":"Juhlaovi"},"geometry":null},
{"type":"Feature","properties":{"@id":"node/2477947154","man_made":"pipelinemarker"},"geometry":null},
{"type":"Feature","properties":{"@id":"node/2564163071","entrance":"yes"},"geometry":null}]}