{"bbox":[24.8133101,60.1776754,24.8402218,60.1919323],"type":"FeatureCollection","features":[
{"type":"Feature","properties":{"@id":"way/4252946","addr:city":"Espoo","addr:country":"FI","addr:housenumber":"1","addr:postcode":"02150","addr:street":"Otakaari","amenity":"university","architect":"Alvar Aalto","building":"yes","guard:operator":"Securitas","int_name":"Aalto Otaniemi Campus Main building","internet_access":"wlan","name":"Aalto Päärakennus","operator":"Aalto-yliopisto","start_date":"1963"},"geometry":{"type":"Polygon","coordinates":[[[24.8276401,60.185628],[24.8272157,60.185702],[24.8270371,60.1854061],[24.8270954,60.1853958],[24.8268987,60.1851012],[24.8267939,60.1850523],[24.8265978,60.1851468],[24.8268755,60.1855951],[24.8268364,60.1856022],[24.8271109,60.18602],[24.8273675,60.1860265],[24.8276115,60.1864114],[24.8278392,60.1863791],[24.8281051,60.186799],[24.828053,60.1868354],[24.8282729,60.1871859],[24.8284664,60.1874449],[24.8287203,60.1874626],[24.8288099,60.1875432],[24.829171,60.1874847],[24.8290617,60.1872394],[24.8290934,60.187201],[24.8294107,60.1871738],[24.8293767,60.1870467],[24.8294733,60.1870102],[24.8294107,60.1869331],[24.8290985,60.1869836],[24.8286214,60.1862776],[24.8289149,60.1862331],[24.8290845,60.1865011],[24.829352,60.1864597],[24.8291865,60.1861886],[24.8294727,60.1861446],[24.8295986,60.1863402],[24.829607,60.1864851],[24.8304812,60.1863335],[24.8302326,60.1859579],[24.8299839,60.1859962],[24.8300942,60.1861722],[24.8298028,60.1862203],[24.8295416,60.1858493],[24.8293095,60.1858845],[24.829425,60.1860687],[24.8291315,60.1861101],[24.8289494,60.1857644],[24.8284485,60.1858439],[24.8283481,60.1856768],[24.8279535,60.1857385],[24.8278787,60.1857719],[24.8276401,60.185628]]]}},
{"type":"Feature","properties":{"@id":"way/7588374","addr:housenumber":"2","addr:postcode":"02150","addr:street":"Vuorimiehentie","amenity":"university","building":"yes","int_name":"Aalto Materials Science and Technology","name":"Aalto Materiaalitekniikka","name:sv":"Aalto Materialteknik"},"geometry":{"type":"Polygon","coordinates":[[[24.8238246,60.1822815],[24.8235876,60.1824078],[24.8256214,60.1834309],[24.8258789,60.1833071],[24.8253982,60.1830383],[24.8255514,60.1829603],[24.8259819,60.1831791],[24.8262257,60.1830661],[24.8249778,60.1824239],[24.8247717,60.1825219],[24.8253296,60.1828163],[24.8250832,60.1829312],[24.8238246,60.1822815]]]}},
{"type":"Feature","properties":{"@id":"way/7584131","addr:city":"Espoo","addr:housename":"Aalto-yliopisto Maarintalo","addr:housenumber":"3","addr:postcode":"02150","addr:street":"Sähkömiehentie","amenity":"university","building":"school","int_name":"Aalto Maari Building","internet_access":"wlan","name":"Aalto-yliopisto Maarintalo","source":"Bing"},"geometry":{"type":"Polygon","coordinates":[[[24.8257549,60.189548],[24.8269758,60.189157],[24.8267654,60.1889947],[24.8260954,60.1892229],[24.8260489,60.1891869],[24.8255086,60.189358],[24.8257549,60.189548]]]}},
{"type":"Feature","properties":{"@id":"way/4217650","addr:city":"Espoo","addr:country":"FI","addr:housenumber":"2","addr:street":"Konemiehentie","amenity":"university","building":"yes","building:levels":"2","int_name":"Aalto Computer Science","internet_access":"wlan","name":"Aalto Tietotekniikka","start_date":"1998"},"geometry":{"type":"Polygon","coordinates":[[[24.8212885,60.1871792],[24.8218626,60.1870873],[24.8219186,60.1870783],[24.8225411,60.1869791],[24.8224423,60.1869026],[24.8223976,60.1867789],[24.8221329,60.1867998],[24.8220836,60.1867524],[24.822336,60.186716],[24.8222782,60.1865828],[24.8217239,60.1867078],[24.8211387,60.1867604],[24.8210779,60.1867659],[24.8204964,60.1868181],[24.8204333,60.1868238],[24.8203009,60.1868357],[24.8203711,60.1869702],[24.8204691,60.1869622],[24.8206263,60.1873572],[24.8209968,60.1872991],[24.8209549,60.1872326],[24.821232,60.1871882],[24.8212885,60.1871792]]]}},
{"type":"Feature","properties":{"@id":"way/7588741","addr:housenumber":"3","addr:postcode":"02150","addr:street":"Tekniikantie","amenity":"university","building":"yes","int_name":"Aalto Forest Products Technology 2","name":"Aalto Puunjalostustekniikka 2"},"geometry":{"type":"Polygon","coordinates":[[[24.8250152,60.1810143],[24.825623,60.1811138],[24.8257341,60.1809459],[24.8261569,60.1810151],[24.8262471,60.1808787],[24.825815,60.180808],[24.8258736,60.1807196],[24.825275,60.1806217],[24.8250152,60.1810143]]]}},
{"type":"Feature","properties":{"@id":"way/27930945","amenity":"university","building":"yes","guard:operator":"Securitas","int_name":"Aalto Nanophysics lab","internet_access":"wlan","name":"Aalto Nanotalo"},"geometry":{"type":"Polygon","coordinates":[[[24.8263273,60.1867662],[24.826187,60.1866442],[24.8260491,60.1866834],[24.8259693,60.186614],[24.8252067,60.1868307],[24.8251362,60.1867694],[24.8253586,60.1867062],[24.8252728,60.1866316],[24.8250781,60.1866869],[24.8249784,60.1866002],[24.8250793,60.1865715],[24.8249098,60.1864241],[24.8244223,60.1865755],[24.8235241,60.1868308],[24.8237018,60.1869853],[24.8241898,60.1868466],[24.8241466,60.186809],[24.8245597,60.1866915],[24.8246879,60.186803],[24.8242068,60.1869398],[24.8242594,60.1869855],[24.8238613,60.1870986],[24.8241807,60.1873764],[24.8263273,60.1867662]]]}},
{"type":"Feature","properties":{"@id":"way/26608177","addr:housenumber":"3","addr:postcode":"02150","addr:street":"Lämpömiehenkuja","building":"yes","int_name":"Aalto Art House","name":"Aalto Taiteiden talo"},"geometry":{"type":"Polygon","coordinates":[[[24.8306194,60.1819066],[24.8310124,60.1814084],[24.8307801,60.1813631],[24.8302914,60.1819827],[24.8305237,60.182028],[24.8306194,60.1819066]]]}},
{"type":"Feature","properties":{"@id":"way/4252948","addr:housenumber":"9","addr:street":"Otaniementie","amenity":"university","building":"yes","int_name":"Aalto Main Library","internet_access":"wlan","name":"Aalto Otaniemen kampuskirjasto","source":"Bing"},"geometry":{"type":"Polygon","coordinates":[[[24.8275032,60.1850933],[24.8287069,60.1844626],[24.828577,60.1843878],[24.8284438,60.1844047],[24.8279877,60.1846355],[24.8278217,60.1845971],[24.8278777,60.1845352],[24.8277165,60.1844987],[24.8270752,60.1848202],[24.8272039,60.1848532],[24.8271103,60.1849288],[24.8275032,60.1850933]]]}},
{"type":"Feature","properties":{"@id":"way/7578961","amenity":"university","building":"yes","int_name":"Aalto Engineering Physics","internet_access":"wlan","name":"Aalto Teknillinen fysiikka"},"geometry":{"type":"Polygon","coordinates":[[[24.8310604,60.1877533],[24.8311448,60.1876783],[24.8308111,60.1875855],[24.8307254,60.1876616],[24.8305562,60.1876145],[24.8306634,60.1875193],[24.8303948,60.1874446],[24.8295877,60.1881615],[24.8294483,60.1882619],[24.8303531,60.1884911],[24.8304062,60.1884439],[24.8305453,60.1884826],[24.8307056,60.1883403],[24.8305665,60.1883016],[24.8309695,60.1879436],[24.8311243,60.1877711],[24.8310604,60.1877533]]]}},
{"type":"Feature","properties":{"@id":"way/7244238","amenity":"university","building":"yes","building:levels":"1","building:roof":"pitched","building:roof:orientation":"along","int_name":"Aalto SAHA"},"geometry":{"type":"Polygon","coordinates":[[[24.8234895,60.1875521],[24.8237151,60.1875184],[24.8234856,60.1871382],[24.82326,60.1871719],[24.8234895,60.1875521]]]}},
{"type":"Feature","properties":{"@id":"way/7579330","addr:city":"Espoo","addr:country":"FI","addr:housenumber":"4","addr:postcode":"02150","addr:street":"Rakentajanaukio","amenity":"university","building":"yes","int_name":"Civil and Environmental Engineering","internet_access":"wlan","name":"Aalto Rakennus- ja ympäristötekniikka","source":"Bing"},"geometry":{"type":"Polygon","coordinates":[[[24.8313019,60.1868498],[24.8311441,60.1868065],[24.831203,60.1867082],[24.8310058,60.1866541],[24.8303639,60.1872325],[24.8305014,60.1873158],[24.8314191,60.1875676],[24.8316076,60.1873978],[24.832018,60.1875104],[24.8321475,60.1873938],[24.8316898,60.1872682],[24.8318019,60.1871672],[24.8315214,60.1870902],[24.831235,60.1873482],[24.8307579,60.1872173],[24.8310268,60.186975],[24.8311421,60.1870067],[24.831052,60.1870864],[24.8312634,60.187125],[24.8313076,60.1870305],[24.8315137,60.1869547],[24.8313019,60.1868498]]]}},
{"type":"Feature","properties":{"@id":"way/26608273","addr:housenumber":"5","addr:postcode":"02150","addr:street":"Betonimiehenkuja","building":"yes","int_name":"Aalto Design Factory","name":"Design Factory"},"geometry":{"type":"Polygon","coordinates":[[[24.8313148,60.1807397],[24.8311297,60.1809757],[24.8324696,60.18124],[24.832602,60.1810713],[24.8314901,60.1808507],[24.8315425,60.1807839],[24.8313148,60.1807397]]]}},
{"type":"Feature","properties":{"@id":"way/26608317","addr:housenumber":"3","addr:postcode":"02150","addr:street":"Betonimiehenkuja","building":"office","int_name":"Aalto Startup Sauna","name":"Startup Sauna","old_name":"Aalto Venture Garage"},"geometry":{"type":"Polygon","coordinates":[[[24.8316392,60.180369],[24.8314762,60.1806102],[24.8321778,60.1807561],[24.8323408,60.1807332],[24.8324146,60.1806455],[24.8330571,60.1807791],[24.8332006,60.1806085],[24.8324501,60.1804524],[24.832389,60.180525],[24.8316392,60.180369]]]}},
{"type":"Feature","properties":{"@id":"way/26608330","addr:housenumber":"1","addr:postcode":"02150","addr:street":"Betonimiehenkuja","building":"yes","int_name":"Nab Labs Oy"},"geometry":{"type":"Polygon","coordinates":[[[24.8321209,60.1801682],[24.8322754,60.1799719],[24.8323441,60.1799847],[24.8325759,60.1796817],[24.8321644,60.1796052],[24.8319423,60.1798746],[24.8320172,60.1798899],[24.8318343,60.1801126],[24.8321209,60.1801682]]]}},
{"type":"Feature","properties":{"@id":"way/7584026","amenity":"university","building":"yes","int_name":"Aalto Mechanical Engineering 4","name":"Aalto Konetekniikka 4","source":"Bing"},"geometry":{"type":"Polygon","coordinates":[[[24.8262772,60.1884363],[24.8257708,60.188595],[24.8257257,60.1885594],[24.8254089,60.188686],[24.8254383,60.1887092],[24.8249577,60.1888597],[24.8254121,60.1892181],[24.8257961,60.1890977],[24.8255825,60.1889292],[24.8257644,60.188911],[24.8260422,60.188824],[24.8261248,60.1888892],[24.8262649,60.1888453],[24.826143,60.1887492],[24.8263443,60.1886861],[24.8264689,60.1887843],[24.8269145,60.1886446],[24.8268387,60.1885386],[24.8265298,60.1886355],[24.8262772,60.1884363]]]}},
{"type":"Feature","properties":{"@id":"way/156903276","EPC:class":"E","addr:housenumber":"4","addr:street":"Otakaari","alt_name":"Konetekniikka 1","amenity":"university","building":"yes","int_name":"Aalto University School of Engineering","internet_access":"wlan","name":"Aalto Konetekniikka 1","source":"Bing","start_date":"1966"},"geometry":{"type":"Polygon","coordinates":[[[24.8260875,60.1872349],[24.8264453,60.1875219],[24.8267484,60.1874745],[24.8266379,60.1873859],[24.8270475,60.1872597],[24.8274962,60.1876197],[24.8276812,60.1875628],[24.8277249,60.1874953],[24.8271214,60.1870111],[24.8268244,60.1871026],[24.8266595,60.1870092],[24.8263526,60.1871038],[24.8263971,60.1871395],[24.8260875,60.1872349]]]}},
{"type":"Feature","properties":{"@id":"way/156903284","amenity":"university","building":"yes","int_name":"Aalto Mechanical Engineering 3","internet_access":"wlan","name":"Aalto Konetekniikka 3","source":"Bing"},"geometry":{"type":"Polygon","coordinates":[[[24.8238825,60.1879244],[24.8241027,60.1878765],[24.8246363,60.1883044],[24.8243711,60.1883861],[24.8240508,60.1881293],[24.8240071,60.1881427],[24.8238157,60.1879892],[24.8235555,60.1880694],[24.8237629,60.1882358],[24.8238179,60.1882188],[24.8245029,60.1887683],[24.8252735,60.1885308],[24.8242394,60.1877014],[24.8237806,60.1878428],[24.8238825,60.1879244]]]}},
{"type":"Feature","properties":{"@id":"way/7588058","addr:housenumber":"1","addr:postcode":"02150","addr:street":"Kemistintie","amenity":"university","building":"school","int_name":"Aalto Chemical Technology","internet_access":"wlan","name":"Aalto Kemian tekniikka"},"geometry":{"type":"Polygon","coordinates":[[[24.822966,60.1831764],[24.8234915,60.1833756],[24.8233971,60.1834525],[24.8238005,60.1835976],[24.8237061,60.1836787],[24.8243069,60.1838792],[24.8245215,60.1837384],[24.8251309,60.1839518],[24.8252167,60.1838792],[24.8258862,60.184131],[24.826281,60.1838664],[24.8259844,60.1837599],[24.8258183,60.1838719],[24.8254484,60.1837384],[24.8257088,60.1835582],[24.8254916,60.1834839],[24.8250918,60.1837163],[24.8246709,60.183542],[24.8249849,60.18335],[24.824731,60.1832508],[24.8243069,60.1835122],[24.8238691,60.1833543],[24.8243326,60.1830684],[24.8239893,60.1829318],[24.823631,60.1831621],[24.8232254,60.1830001],[24.822966,60.1831764]]]}},
{"type":"Feature","properties":{"@id":"way/24342454","amenity":"university","building":"yes","building:maintenance:operator":"ISS","guard:operator":"Securitas","int_name":"Aalto University Electronics","internet_access":"wlan","loc_name":"Sähkö","name":"Aalto-yliopisto Sähkötekniikka","name:en":"Aalto University School of Electrical Engineering","name:sv":"Aalto-universitetet Högskolan för elektroteknik","wifi":"free"},"geometry":{"type":"Polygon","coordinates":[[[24.8315843,60.1886503],[24.8311674,60.1886436],[24.831246,60.1889572],[24.830912,60.1889579],[24.8309049,60.1886357],[24.8306386,60.1886357],[24.8306399,60.1889141],[24.8303228,60.1889174],[24.83009,60.1888034],[24.829961,60.1889077],[24.82993,60.1890038],[24.8300981,60.1891744],[24.830336,60.1890542],[24.8306386,60.1890494],[24.8306449,60.1893287],[24.8309122,60.1893287],[24.8309127,60.1890488],[24.8312467,60.1890481],[24.8312417,60.1893302],[24.831514,60.1893267],[24.8315106,60.1890885],[24.8318384,60.1890874],[24.8318418,60.18933],[24.8321075,60.189329],[24.8321046,60.1891245],[24.8324439,60.1891234],[24.8324513,60.1896435],[24.8325063,60.1896434],[24.8325086,60.1898067],[24.8327567,60.1898058],[24.8327537,60.1895938],[24.8327047,60.1895939],[24.8326906,60.1886039],[24.8324321,60.1886048],[24.8324382,60.1890333],[24.8321047,60.1890345],[24.8321014,60.1885872],[24.8318013,60.1885878],[24.8318347,60.1886539],[24.8318372,60.188993],[24.8315077,60.1889936],[24.8315063,60.1887977],[24.8316041,60.1887584],[24.8315843,60.1886503]]]}},
{"type":"Feature","properties":{"@id":"way/29012757","addr:city":"Espoo","addr:country":"FI","addr:housenumber":"17","addr:street":"Otaniementie","amenity":"university","building":"yes","int_name":"Aalto TUAS House","internet_access":"wlan","name":"Aalto TUAS-talo","start_date":"2003"},"geometry":{"type":"Polygon","coordinates":[[[24.8174188,60.1870289],[24.817364,60.1870992],[24.8174349,60.1873012],[24.8185116,60.1871995],[24.8184617,60.1873432],[24.8185104,60.1874633],[24.8191404,60.1873914],[24.8191897,60.1874951],[24.8198166,60.1874199],[24.8197704,60.1873255],[24.8200002,60.1872951],[24.8200405,60.1873857],[24.8202364,60.1873604],[24.8201384,60.1871379],[24.8201962,60.1871319],[24.8200799,60.18684],[24.8194901,60.1868937],[24.8194613,60.1868155],[24.8191474,60.1868656],[24.8174188,60.1870289]]]}},
{"type":"Feature","properties":{"@id":"way/4259025","addr:housenumber":"1","addr:street":"Tietotie","amenity":"university","building":"yes","int_name":"Aalto Marine Technology","name":"Aalto Meritekniikka"},"geometry":{"type":"Polygon","coordinates":[[[24.8174529,60.1861414],[24.81753,60.186352],[24.8182488,60.186288],[24.8182917,60.1864],[24.821406,60.1861417],[24.8212189,60.1856652],[24.8204735,60.1857303],[24.8204268,60.1857599],[24.8204897,60.1859135],[24.8181996,60.186105],[24.8181943,60.1860793],[24.8174529,60.1861414]]]}},
{"type":"Feature","properties":{"@id":"way/27464085","addr:housenumber":"6,8","addr:postcode":"02150","addr:street":"Metallimiehenkuja 10","amenity":"university","building":"yes","int_name":"Aalto ACE","name":"Aalto ACE"},"geometry":{"type":"Polygon","coordinates":[[[24.829752,60.1830953],[24.8298677,60.1830237],[24.8300333,60.1831008],[24.8301891,60.183018],[24.830402,60.1831038],[24.8306851,60.1829534],[24.8299047,60.1825903],[24.8296217,60.1827407],[24.8297576,60.1828173],[24.8294333,60.1829435],[24.8293362,60.1828983],[24.8291522,60.1829961],[24.8300332,60.183406],[24.8302136,60.1833101],[24.829752,60.1830953]]]}},
{"type":"Feature","properties":{"@id":"way/26608151","addr:housenumber":"2","addr:postcode":"02150","addr:street":"Lämpömiehenkuja","building":"yes","int_name":"Aalto University","name":"Aalto-yliopistosäätiö"},"geometry":{"type":"Polygon","coordinates":[[[24.8327715,60.1816453],[24.8325682,60.1815812],[24.8319892,60.1820353],[24.831873,60.1819681],[24.8320191,60.1818536],[24.8318416,60.1817976],[24.831235,60.1822734],[24.8313926,60.182323],[24.8313398,60.1824474],[24.8315158,60.1825029],[24.8317957,60.1822834],[24.8316925,60.1822509],[24.8318674,60.1820651],[24.8322113,60.1821736],[24.8320027,60.1823371],[24.8323026,60.1824317],[24.8327329,60.1820942],[24.832435,60.1820003],[24.8322731,60.1821273],[24.8321903,60.1821011],[24.8327715,60.1816453]]]}}
]}
